HIERARCHY
ROOT Hips
{
  OFFSET 0.00000 0.89321 0.00000
  CHANNELS 6 Xposition Yposition Zposition Zrotation Xrotation Yrotation
  JOINT LowerBack
  {
    OFFSET 0.00000 0.04912 0.00000
    CHANNELS 3 Zrotation Xrotation Yrotation
    JOINT Spine
    {
      OFFSET 0.00000 0.14736 0.00000
      CHANNELS 3 Zrotation Xrotation Yrotation
      JOINT Spine1
      {
        OFFSET 0.00000 0.14736 0.00000
        CHANNELS 3 Zrotation Xrotation Yrotation
        JOINT Neck
        {
          OFFSET 0.00000 0.14736 0.00000
          CHANNELS 3 Zrotation Xrotation Yrotation
          JOINT Head
          {
            OFFSET 0.00000 0.15875 0.00000
            CHANNELS 3 Zrotation Xrotation Yrotation
            End Site
            {
              OFFSET 0.00000 0.20682 0.00000
            }
          }
        }
        JOINT LeftShoulder
        {
          OFFSET 0.00000 0.14736 0.00000
          CHANNELS 3 Zrotation Xrotation Yrotation
          JOINT LeftArm
          {
            OFFSET 0.15013 0.00000 0.00000
            CHANNELS 3 Zrotation Xrotation Yrotation
            JOINT LeftForeArm
            {
              OFFSET 0.26219 0.00000 0.00000
              CHANNELS 3 Zrotation Xrotation Yrotation
              JOINT LeftHand
              {
                OFFSET 0.24205 0.00000 0.00000
                CHANNELS 3 Zrotation Xrotation Yrotation
                End Site
                {
                  OFFSET 0.09307 0.00000 0.00000
                }
              }
            }
          }
        }
        JOINT RightShoulder
        {
          OFFSET 0.00000 0.14736 0.00000
          CHANNELS 3 Zrotation Xrotation Yrotation
          JOINT RightArm
          {
            OFFSET -0.15013 0.00000 0.00000
            CHANNELS 3 Zrotation Xrotation Yrotation
            JOINT RightForeArm
            {
              OFFSET -0.26219 0.00000 0.00000
              CHANNELS 3 Zrotation Xrotation Yrotation
              JOINT RightHand
              {
                OFFSET -0.24205 0.00000 0.00000
                CHANNELS 3 Zrotation Xrotation Yrotation
                End Site
                {
                  OFFSET -0.09307 0.00000 0.00000
                }
              }
            }
          }
        }
      }
    }
  }
  JOINT LeftUpLeg
  {
    OFFSET 0.10271 0.00000 0.00000
    CHANNELS 3 Zrotation Xrotation Yrotation
    JOINT LeftLeg
    {
      OFFSET 0.00000 -0.38941 0.00000
      CHANNELS 3 Zrotation Xrotation Yrotation
      JOINT LeftFoot
      {
        OFFSET 0.00000 -0.41590 0.00000
        CHANNELS 3 Zrotation Xrotation Yrotation
        JOINT LeftToeBase
        {
          OFFSET 0.00000 -0.08790 0.10341
          CHANNELS 3 Zrotation Xrotation Yrotation
          End Site
          {
            OFFSET 0.00000 0.00000 0.06205
          }
        }
      }
    }
  }
  JOINT RightUpLeg
  {
    OFFSET -0.10271 0.00000 0.00000
    CHANNELS 3 Zrotation Xrotation Yrotation
    JOINT RightLeg
    {
      OFFSET 0.00000 -0.38941 0.00000
      CHANNELS 3 Zrotation Xrotation Yrotation
      JOINT RightFoot
      {
        OFFSET 0.00000 -0.41590 0.00000
        CHANNELS 3 Zrotation Xrotation Yrotation
        JOINT RightToeBase
        {
          OFFSET 0.00000 -0.08790 0.10341
          CHANNELS 3 Zrotation Xrotation Yrotation
          End Site
          {
            OFFSET 0.00000 0.00000 0.06205
          }
        }
      }
    }
  }
}
MOTION
Frames: 36
Frame Time: 0.03333333
0.0000 0.8545 0.0000 -8.1660 17.9536 2.5327 0.5408 0.5739 -7.8208 0.5408 0.5739 -7.8208 0.5408 0.5739 -7.8208 12.5597 -0.4806 1.8902 18.8440 -0.5630 2.8634 0.0000 0.0000 0.0000 -45.1542 -3.9906 9.5791 -11.2227 0.8774 -8.9124 -0.0000 0.0000 0.0000 0.0000 0.0000 0.0000 91.1471 -23.4236 19.9068 -0.0008 -0.2296 38.9025 0.0000 -0.0000 -0.0000 26.9805 -34.8753 20.6620 0.0000 46.2442 0.0000 -9.0283 -24.3307 -10.0204 0.0000 -0.0000 0.0000 -20.8486 -28.3436 -44.1434 -0.0000 51.2803 0.0000 1.2246 -38.3113 1.3247 -0.0000 -0.0000 0.0000
-0.0010 0.8526 0.0005 -7.9801 16.9822 2.0365 0.3815 0.6165 -8.3353 0.3815 0.6165 -8.3353 0.3815 0.6165 -8.3353 12.5934 0.1006 1.5327 18.8880 0.2763 2.2815 0.0000 0.0000 0.0000 -43.9087 -4.1346 11.4630 -12.9354 1.6148 -9.8472 0.0000 -0.0000 0.0000 0.0000 0.0000 0.0000 89.5120 -22.0787 19.2489 -0.0004 -0.1586 39.0655 0.0000 0.0000 0.0000 26.2370 -33.4649 19.2108 -0.0000 45.2570 0.0000 -8.9952 -23.5901 -9.9986 0.0000 0.0000 0.0000 -22.1933 -27.6955 -46.6625 0.0000 51.6831 0.0000 2.3721 -35.8489 2.5772 0.0000 0.0000 -0.0000
-0.0029 0.8519 0.0006 -7.7242 15.2524 1.2848 0.0833 0.6924 -9.1312 0.0833 0.6924 -9.1312 0.0833 0.6924 -9.1312 12.7745 0.4956 -0.2471 19.1629 0.7197 -0.4105 0.0000 0.0000 0.0000 -42.6431 -1.5096 14.0804 -14.4844 5.1615 -11.2248 0.0000 0.0000 0.0000 0.0000 0.0000 0.0000 86.1126 -24.2883 19.1313 0.0000 0.0000 41.6341 0.0000 0.0000 0.0000 25.1073 -30.6139 17.1909 0.0000 42.9133 0.0000 -8.3429 -22.0280 -9.3037 0.0000 0.0000 0.0000 -22.9536 -26.3588 -48.3891 0.0000 51.9917 0.0000 3.2732 -33.6120 3.5705 0.0000 0.0000 0.0000
-0.0073 0.8518 0.0026 -7.3729 11.5573 0.1668 -0.4838 0.8459 -10.3059 -0.4838 0.8459 -10.3059 -0.4838 0.8459 -10.3059 12.4918 -0.4213 -5.3469 18.7103 -1.0646 -7.9546 0.0000 0.0000 0.0000 -41.9291 7.3117 17.2180 -14.9891 12.7352 -13.7282 0.0000 0.0000 0.0000 0.0000 0.0000 0.0000 82.3430 -33.8924 23.5358 0.0000 0.0000 47.7121 0.0000 0.0000 0.0000 23.6877 -26.0300 14.1046 0.0000 40.8830 0.0000 -7.6392 -20.0029 -8.5555 0.0000 0.0000 0.0000 -22.4878 -23.1979 -48.0496 0.0000 52.3217 0.0000 4.2823 -30.3693 4.6992 0.0000 0.0000 0.0000
-0.0279 0.8552 0.0037 -7.0707 5.2472 -2.0200 -1.9598 1.2853 -11.1812 -1.9598 1.2853 -11.1812 -1.9598 1.2853 -11.1812 11.5657 -1.8544 -7.7797 17.2356 -3.3550 -11.4951 0.0000 0.0000 0.0000 -38.4678 19.7920 18.8654 -15.2950 19.4539 -14.8095 0.0000 0.0000 0.0000 0.0000 0.0000 0.0000 70.8323 -35.0509 24.5088 0.0000 0.0000 52.2010 0.0000 0.0000 0.0000 21.9203 -16.7621 9.6225 0.0000 35.9014 0.0000 -6.6309 -13.7529 -7.5296 0.0000 0.0000 0.0000 -20.8418 -16.6042 -45.2267 0.0000 51.6151 0.0000 3.4929 -25.5106 3.8692 0.0000 0.0000 0.0000
-0.0457 0.8615 0.0061 -6.9470 0.7260 -4.0890 -3.6974 1.8668 -12.1338 -3.6974 1.8668 -12.1338 -3.6974 1.8668 -12.1338 10.8029 -0.3980 -10.7336 16.1304 -1.3492 -16.0259 0.0000 0.0000 0.0000 -24.7346 12.6077 16.5947 -15.2834 14.2163 -13.7019 0.0000 0.0000 0.0000 0.0000 0.0000 0.0000 53.4731 -46.7668 18.7599 0.0000 0.0000 40.0403 0.0000 -0.0000 0.0000 20.9521 -10.9492 5.4924 0.0000 32.3993 0.0000 -5.3898 -12.1361 -6.1440 0.0000 0.0000 0.0000 -18.8175 -11.4396 -43.4127 0.0000 49.6752 0.0000 2.4080 -17.8316 2.7104 0.0000 0.0000 0.0000
-0.0587 0.8630 0.0138 -6.3530 0.6485 -4.6182 -4.8046 1.9983 -12.4236 -4.8046 1.9983 -12.4236 -4.8046 1.9983 -12.4236 11.5556 -0.1102 -10.0741 17.2821 -0.9229 -15.0522 0.0000 0.0000 0.0000 -11.3421 0.9092 10.4159 -10.3176 3.1864 -14.7663 -0.0000 -0.0000 0.0000 0.0000 0.0000 0.0000 40.8012 -39.3746 11.9605 -0.0000 0.0000 40.6549 -0.0000 0.0000 0.0000 20.2618 -9.9581 2.5749 0.0000 30.7475 0.0000 -3.6988 -11.7049 -4.2212 0.0000 0.0000 0.0000 -18.9627 -9.6441 -43.0289 0.0000 48.5304 0.0000 1.9740 -15.4254 2.2337 0.0000 0.0000 0.0000
-0.0617 0.8572 0.0262 -5.1989 3.1759 -1.5915 -6.0487 2.0372 -12.7809 -6.0487 2.0372 -12.7809 -6.0487 2.0372 -12.7809 14.0226 -3.4029 -4.7685 20.9411 -5.5125 -6.8133 0.0000 0.0000 0.0000 0.4465 -0.0144 -3.6833 -5.9799 0.3869 -7.3972 0.0000 0.0000 0.0000 0.0000 0.0000 0.0000 26.3719 -3.7421 0.4495 0.0000 0.0000 74.1650 0.0000 0.0000 0.0000 19.0202 -11.2794 1.5852 0.0080 27.3751 -0.0166 -5.1942 -10.5823 -5.9429 0.0000 0.0000 0.0000 -19.0242 -7.3182 -48.3572 -0.0000 44.6504 -0.0000 8.3308 -17.5663 9.3782 0.0000 0.0000 0.0000
-0.0539 0.8273 0.0440 -5.3295 7.3150 16.4236 -5.8784 1.7197 -12.1149 -5.8784 1.7197 -12.1149 -5.8784 1.7197 -12.1149 21.0169 -10.5595 4.6821 32.1269 -15.0038 8.4941 0.0000 0.0000 -0.0000 2.0269 0.0642 3.6257 -5.7566 -0.0380 0.7553 0.0000 0.0000 -0.0000 0.0000 0.0000 -0.0000 77.4105 -23.2104 68.3816 0.0000 0.0000 42.0585 0.0000 0.0000 0.0000 15.7744 -16.1049 -1.4073 0.0000 31.1847 0.0000 -4.7446 -9.2292 -5.4465 0.0000 0.0000 0.0000 -11.1436 -18.7220 -40.6860 0.0000 40.1665 0.0000 15.2398 -17.0822 17.1548 0.0000 0.0000 0.0000
-0.0429 0.7676 0.0522 -9.5025 11.1966 38.6713 -3.1285 1.1248 -10.8364 -3.1285 1.1248 -10.8364 -3.1285 1.1248 -10.8364 14.1666 -1.6385 13.3794 21.2969 -1.2027 20.1187 0.0000 0.0000 0.0000 4.3554 0.7875 20.4886 -10.0582 -0.8429 9.5558 0.0000 0.0000 0.0000 0.0000 0.0000 0.0000 81.0264 -58.1716 59.1958 -4.0059 -21.3798 30.0142 0.0000 0.0000 0.0000 23.8398 -8.5263 -2.9339 0.0000 37.8303 -0.0000 2.1231 32.1206 2.8524 0.0000 0.0000 0.0000 -8.5771 -50.5467 -8.6606 0.0000 48.4771 0.0000 -5.1934 -16.7771 -5.8581 0.0000 0.0000 0.0000
-0.0325 0.7117 0.0552 -13.2254 10.2882 59.2705 -1.2220 0.1802 -3.4236 -1.2220 0.1802 -3.4236 -1.2220 0.1802 -3.4236 9.1954 0.3314 12.3323 13.7141 1.2330 18.4400 0.0000 0.0000 0.0000 13.1761 1.3909 11.9997 -13.0858 0.6956 -6.0588 0.0000 0.0000 0.0000 0.0000 0.0000 0.0000 51.3800 -9.5989 38.7202 -0.2250 -3.2002 34.7886 0.0000 0.0000 0.0000 31.2291 -17.3103 -13.5877 0.0000 45.4641 0.0000 -1.2622 37.1270 -1.7540 0.0000 0.0000 0.0000 -31.6705 -59.9038 -26.4409 0.0000 67.3605 0.0000 2.7899 -14.3011 3.1649 0.0000 0.0000 0.0000
-0.0292 0.6590 0.0865 -18.1807 5.9400 90.9674 2.6696 0.0633 17.4746 2.6696 0.0633 17.4746 2.6696 0.0633 17.4746 5.1639 -0.2641 -7.4140 7.7224 -0.6455 -11.1047 0.0000 0.0000 0.0000 21.2988 14.6650 -22.5881 -0.0000 0.0000 -45.1334 0.0000 0.0000 0.0000 0.0000 0.0000 0.0000 31.4704 -28.9882 4.3164 -11.0088 -19.3315 20.4551 0.0000 0.0000 0.0000 34.6268 -39.6451 -22.3444 0.0000 48.6628 0.0000 1.6723 42.7845 2.4339 0.0000 0.0000 0.0000 -61.4461 -39.4258 -70.2911 -0.0000 76.9645 -0.0000 15.2082 -8.1098 17.4765 0.0000 0.0000 0.0000
-0.0286 0.6303 0.1224 -19.7880 5.6725 96.1696 3.6117 1.0484 19.0918 3.6117 1.0484 19.0918 3.6117 1.0484 19.0918 2.6259 -0.2024 -9.3749 3.9176 -0.4638 -14.0565 0.0000 0.0000 0.0000 5.1780 6.3354 -6.1225 -10.7105 7.1960 -17.1022 0.0000 0.0000 0.0000 0.0000 0.0000 0.0000 24.6556 -33.7912 -2.6346 -11.9538 -21.0950 19.5597 -0.0000 0.0000 0.0000 28.3370 -45.2804 -37.7190 0.0000 55.7831 -0.0000 -3.6777 40.8930 -5.2628 0.0000 0.0000 0.0000 -87.7588 -24.9940 -84.1189 -180.0000 87.7101 -180.0000 18.4487 -1.4021 21.5499 0.0000 0.0000 0.0000
-0.0276 0.6228 0.1385 -20.2304 4.9081 100.2146 4.8599 1.5828 19.3622 4.8599 1.5828 19.3622 4.8599 1.5828 19.3622 1.9044 -1.0933 -9.5613 2.7819 -1.7550 -14.3288 0.0000 0.0000 0.0000 -3.1700 6.1287 -1.8308 -8.5238 6.4368 -19.0608 0.0000 0.0000 0.0000 0.0000 0.0000 0.0000 9.6824 -60.8755 -14.0142 -0.8152 -8.8676 33.9151 0.0000 0.0000 0.0000 23.7179 -44.8424 -47.8397 0.0000 53.5105 -0.0000 -3.8464 42.8814 -5.6013 0.0000 0.0000 0.0000 -90.7728 -17.0676 -83.0666 -180.0000 88.0886 -180.0000 17.7406 0.1370 20.8159 0.0000 0.0000 0.0000
-0.0261 0.6152 0.1406 -20.1270 5.1337 100.6695 4.7713 1.6384 19.9620 4.7713 1.6384 19.9620 4.7713 1.6384 19.9620 2.1542 -1.5509 -9.6477 3.1267 -2.4565 -14.4515 0.0000 0.0000 -0.0000 -4.2961 11.4364 2.0749 -3.9247 7.4701 -25.5121 0.0000 0.0000 -0.0000 0.0000 0.0000 -0.0000 11.6156 -50.8360 -13.1466 -0.0800 -2.5484 36.5963 0.0000 0.0000 -0.0000 19.0640 -41.4457 -54.7904 0.0000 54.2676 -0.0000 -4.1380 48.5379 -6.3904 0.0000 0.0000 0.0000 -95.9981 -15.5991 -85.9920 -180.0000 80.7630 -180.0000 18.0339 -0.9927 21.0919 0.0000 0.0000 0.0000
-0.0231 0.6126 0.1161 -19.8543 4.9870 101.7855 4.7869 1.5882 20.0966 4.7869 1.5882 20.0966 4.7869 1.5882 20.0966 2.6674 -1.5872 -9.5570 3.8937 -2.5415 -14.3089 0.0000 0.0000 0.0000 -1.2516 17.0557 1.2723 -1.6350 6.4305 -29.7873 0.0000 0.0000 0.0000 0.0000 0.0000 0.0000 12.5516 -42.8325 -13.2563 -0.0041 -0.5217 38.3521 0.0000 0.0000 0.0000 16.3957 -39.7945 -58.8603 -0.0000 54.1137 0.0000 -4.1551 51.2025 -6.6365 0.0000 0.0000 0.0000 -95.3405 -13.9911 -85.5516 -180.0000 79.9940 -180.0000 19.3608 1.6023 22.7978 0.0000 0.0000 0.0000
-0.0181 0.6129 0.0903 -18.8962 4.2026 104.7553 4.8270 1.3050 19.4734 4.8270 1.3050 19.4734 4.8270 1.3050 19.4734 3.6409 -0.4013 -8.9830 5.4268 -0.8141 -13.4608 0.0000 0.0000 0.0000 7.7097 27.5235 -7.3623 -0.1211 2.3485 -35.5784 0.0000 -0.0000 0.0000 0.0000 0.0000 0.0000 17.8314 -25.9706 -11.9872 -0.8596 -5.7295 32.2076 0.0000 -0.0000 0.0000 14.3603 -36.3849 -64.3286 0.0000 41.8482 0.0000 -0.7260 55.0169 -1.2289 0.0000 0.0000 0.0000 -93.2945 -13.2126 -82.1437 -180.0000 73.7700 -180.0000 28.1999 16.6225 34.7108 0.0000 0.0000 0.0000
-0.0148 0.6144 0.0750 -17.6210 3.8075 107.6885 4.8656 1.1040 18.4002 4.8656 1.1040 18.4002 4.8656 1.1040 18.4002 4.9506 -0.1036 -8.8075 7.4053 -0.4399 -13.1998 0.0000 0.0000 0.0000 13.9080 26.8271 -15.4843 -0.0058 0.5153 -38.0096 0.0000 0.0000 0.0000 0.0000 0.0000 0.0000 19.3505 -25.2958 -11.2143 -0.8145 -5.4984 32.2644 0.0000 0.0000 0.0000 18.3142 -36.8910 -65.1782 0.0000 38.6743 0.0000 0.4227 54.3771 0.7080 0.0000 0.0000 0.0000 -87.2195 -14.6283 -81.6119 -180.0000 78.1402 -180.0000 32.4138 2.7607 38.0400 0.0000 0.0000 0.0000
-0.0098 0.6179 0.0507 -17.3296 3.9334 108.0679 4.3828 0.9145 17.5269 4.3828 0.9145 17.5269 4.3828 0.9145 17.5269 5.7808 -0.1108 -8.0813 8.6511 -0.4709 -12.1077 0.0000 0.0000 0.0000 13.0415 19.4704 -22.7995 -0.0050 0.4213 -37.9471 0.0000 0.0000 0.0000 0.0000 0.0000 0.0000 21.7327 -23.3059 -9.1546 -0.2174 -2.7653 34.4756 0.0000 0.0000 0.0000 20.5996 -38.9793 -61.3983 -0.0000 40.6040 0.0000 0.2698 50.9461 0.4297 0.0000 -0.0000 0.0000 -77.2756 -18.1218 -78.9464 -180.0000 85.5437 -180.0000 32.0514 10.7931 38.5437 0.0000 0.0000 0.0000
-0.0025 0.6282 0.0225 -16.6575 4.2620 108.8262 3.8396 0.7319 16.1677 3.8396 0.7319 16.1677 3.8396 0.7319 16.1677 7.1667 0.6062 -7.5895 10.7645 0.5516 -11.3979 0.0000 0.0000 0.0000 10.7557 15.7604 -27.9709 -0.0286 0.9239 -36.6197 0.0000 0.0000 0.0000 0.0000 0.0000 0.0000 23.1920 -26.4792 -7.4479 -0.0943 -1.9636 35.7424 0.0000 0.0000 0.0000 23.0283 -39.4289 -55.3871 0.0000 37.5531 0.0000 1.0970 51.7623 1.7667 0.0000 0.0000 0.0000 -54.0678 -24.0948 -71.1429 -360.0000 77.2555 -0.0000 30.6340 15.3336 37.4581 0.0000 0.0000 0.0000
0.0160 0.6806 -0.0128 -15.9601 5.4274 104.5733 2.9862 0.7290 14.8252 2.9862 0.7290 14.8252 2.9862 0.7290 14.8252 7.3225 1.5786 -7.1240 11.0448 2.0209 -10.7487 0.0000 0.0000 0.0000 1.9503 7.7171 -31.3942 -0.1084 1.2040 -34.0757 0.0000 0.0000 0.0000 0.0000 0.0000 0.0000 27.7617 -51.6088 -3.9955 -0.0000 -0.0000 41.4279 -0.0000 0.0000 0.0000 23.7470 -34.9044 -55.2204 -0.0000 38.2944 0.0000 0.1293 47.0869 0.1965 0.0000 -0.0000 0.0000 -27.8388 -32.1935 -56.1466 -360.0000 61.9966 -0.0000 19.4523 0.5458 22.8364 0.0000 0.0000 0.0000
0.0402 0.7542 -0.0353 -11.2260 7.1315 87.2000 0.8536 0.3460 6.0235 0.8536 0.3460 6.0235 0.8536 0.3460 6.0235 8.0375 6.5128 0.4183 12.0842 9.7751 0.2818 0.0000 0.0000 0.0000 -13.7809 0.9163 -16.1267 0.2663 -0.6062 -27.1934 0.0000 0.0000 0.0000 0.0000 0.0000 0.0000 55.5294 -27.2343 16.5009 0.0000 0.0000 56.6010 0.0000 0.0000 0.0000 16.0814 -21.3048 -49.9780 0.0000 46.5559 0.0000 -1.0526 41.6983 -1.5172 0.0000 0.0000 0.0000 -17.4881 -26.5108 -35.2765 -360.0000 49.7727 0.0000 14.6269 -4.7165 16.9555 0.0000 0.0000 0.0000
0.0508 0.7757 -0.0412 -6.0110 6.8039 73.6354 -0.4204 -0.0532 -2.0499 -0.4204 -0.0532 -2.0499 -0.4204 -0.0532 -2.0499 7.1578 9.4047 3.4273 10.6049 14.2463 4.7231 0.0000 0.0000 0.0000 -21.7943 -3.3642 3.3064 0.8118 -1.6857 -26.6748 0.0000 0.0000 0.0000 0.0000 0.0000 0.0000 56.7557 -24.5095 16.2248 0.0000 0.0000 61.0404 0.0000 0.0000 0.0000 9.4619 -12.7150 -46.0707 0.0000 55.5436 0.0000 -5.0778 33.3307 -6.8713 -0.0000 0.0000 0.0000 -13.0902 -21.6926 -20.9436 -360.0000 45.1011 0.0000 7.7994 -14.9203 8.8320 0.0000 0.0000 0.0000
0.0490 0.7976 -0.0450 -3.0299 5.4617 62.3705 -1.1557 0.0446 -4.8970 -1.1557 0.0446 -4.8970 -1.1557 0.0446 -4.8970 6.1190 8.6471 5.4243 8.9215 13.1674 7.8309 0.0000 0.0000 0.0000 -23.2705 -1.6469 4.9793 2.4686 -0.9875 -18.8704 0.0000 0.0000 0.0000 0.0000 0.0000 0.0000 62.1566 -21.1150 16.5569 0.0000 0.0000 57.0945 0.0000 0.0000 0.0000 5.0405 -8.2651 -40.2566 0.0000 63.4997 0.0000 -3.0797 29.3243 -4.0695 0.0000 0.0000 0.0000 -10.7311 -17.6653 -13.8230 -360.0000 38.8933 0.0000 -0.8308 -22.8990 -0.9252 0.0000 0.0000 0.0000
0.0402 0.8107 -0.0341 -1.5305 4.1274 53.6174 -1.4826 0.3548 -6.4770 -1.4826 0.3548 -6.4770 -1.4826 0.3548 -6.4770 5.8173 5.8833 6.7826 8.4806 9.0660 9.9723 0.0000 0.0000 0.0000 -26.7635 -1.0764 2.8726 0.3016 -0.3480 -23.6155 0.0000 0.0000 0.0000 0.0000 0.0000 0.0000 66.6989 -14.6591 17.7592 -0.2574 -3.2774 34.4758 0.0000 0.0000 0.0000 4.0216 -6.6494 -35.2281 -0.0000 63.5343 0.0000 0.5471 28.4182 0.7194 0.0000 0.0000 0.0000 -7.0668 -16.5598 -4.4519 -360.0000 35.7845 0.0000 -13.0338 -24.8340 -14.4441 0.0000 0.0000 0.0000
0.0305 0.8185 -0.0218 -3.2467 6.0780 42.7577 -0.7686 1.0275 -9.1859 -0.7686 1.0275 -9.1859 -0.7686 1.0275 -9.1859 6.5898 1.3540 7.5593 9.8057 2.3514 11.2706 0.0000 0.0000 -0.0000 -32.6841 -1.0704 -3.6977 0.5222 -1.2235 -27.3355 0.0000 0.0000 -0.0000 0.0000 0.0000 -0.0000 67.4034 2.7078 25.0227 -11.8278 -12.3826 17.8123 0.0000 0.0000 0.0000 4.7798 -10.9337 -28.6359 0.0000 62.3341 0.0000 0.1386 23.2416 0.1775 0.0000 0.0000 0.0000 -2.1513 -18.9208 7.7766 -360.0000 33.2524 -0.0000 -24.2567 -19.2266 -27.1176 0.0000 0.0000 -0.0000
0.0231 0.8275 -0.0139 -6.9608 12.8053 33.1483 1.3120 1.3946 -12.5205 1.3120 1.3946 -12.5205 1.3120 1.3946 -12.5205 7.1796 -1.6499 7.5003 10.8367 -2.1163 11.3151 0.0000 0.0000 0.0000 -34.9219 1.0192 -3.2396 2.2683 -0.2547 -12.8132 0.0000 0.0000 0.0000 0.0000 0.0000 0.0000 65.1056 13.2104 36.0547 -13.9583 -10.5688 14.4985 -0.0000 0.0000 0.0000 8.0305 -19.8875 -16.8641 0.0000 54.2625 0.0000 -5.4739 1.7979 -6.4715 0.0000 0.0000 0.0000 -2.1210 -21.4665 4.1800 -360.2094 26.4294 0.4350 -26.4346 -19.3231 -29.5258 0.0000 0.0000 -0.0000
0.0183 0.8268 -0.0048 -6.7765 17.9036 22.0446 1.2687 0.8824 -10.9203 1.2687 0.8824 -10.9203 1.2687 0.8824 -10.9203 8.4116 -2.9525 6.7044 12.7406 -4.0471 10.2076 0.0000 0.0000 0.0000 -38.3957 0.5664 -1.6267 -1.3054 0.1266 -11.0764 0.0000 0.0000 -0.0000 0.0000 0.0000 0.0000 82.9595 -7.2157 33.5387 -5.5290 -16.4181 26.7875 0.0000 0.0000 0.0000 10.0429 -30.8600 -3.7759 0.0000 47.8739 0.0000 -10.9629 -12.7739 -12.4699 0.0000 0.0000 0.0000 -8.1614 -21.1509 -21.9348 -358.9907 26.2586 -2.0941 -10.9661 -29.6089 -12.0445 0.0000 0.0000 0.0000
0.0159 0.8436 0.0019 -5.2144 19.7910 12.9680 0.6702 0.5267 -9.1329 0.6702 0.5267 -9.1329 0.6702 0.5267 -9.1329 9.7200 -3.5196 4.7915 14.6961 -4.9591 7.4011 0.0000 0.0000 0.0000 -40.0869 0.1059 -0.2903 -7.4248 0.6286 -9.6644 0.0000 -0.0000 0.0000 0.0000 0.0000 0.0000 91.1541 -22.7741 29.4226 -0.5056 -6.2592 34.3632 0.0000 -0.0000 0.0000 14.9862 -33.5389 8.2210 0.0000 42.1974 0.0000 -8.5573 -11.6869 -9.7617 0.0000 0.0000 0.0000 -15.2520 -23.4867 -39.9468 -360.0000 33.1442 0.0000 -1.5532 -29.4679 -1.7075 0.0000 0.0000 0.0000
0.0277 0.8514 0.0028 -4.3682 19.7609 7.1300 0.4174 0.3855 -8.3588 0.4174 0.3855 -8.3588 0.4174 0.3855 -8.3588 10.1538 -3.1008 3.8134 15.3140 -4.3842 5.9156 0.0000 0.0000 0.0000 -42.2580 -0.7447 1.9269 -10.1129 0.9233 -10.4060 0.0000 0.0000 0.0000 0.0000 0.0000 0.0000 90.9984 -25.0702 24.3640 -0.0131 -0.9838 37.8229 0.0000 0.0000 0.0000 18.4331 -34.3092 14.9364 0.0000 42.6575 0.0000 -6.7419 -10.8252 -7.7082 0.0000 0.0000 0.0000 -21.4047 -25.4224 -47.9797 -360.0000 41.7140 0.0000 2.8337 -26.1387 3.1351 0.0000 0.0000 0.0000
0.0367 0.8517 0.0006 -4.4621 19.3672 4.1270 0.3710 0.3653 -7.9022 0.3710 0.3653 -7.9022 0.3710 0.3653 -7.9022 10.5423 -2.0560 3.4058 15.8595 -2.8398 5.2376 0.0000 0.0000 0.0000 -43.7501 -1.2478 4.6613 -12.6623 1.7826 -10.4774 0.0000 0.0000 0.0000 0.0000 0.0000 0.0000 90.3593 -25.8926 20.2972 -0.0000 -0.0001 39.9833 0.0000 0.0000 -0.0000 21.4081 -34.4457 19.4269 0.0000 44.8515 0.0000 -9.0690 -11.5453 -10.3482 0.0000 0.0000 0.0000 -25.5816 -27.0944 -52.1660 -360.0000 48.3169 0.0000 5.9835 -26.3664 6.6161 0.0000 0.0000 0.0000
0.0423 0.8503 0.0002 -4.7584 18.9011 2.1941 0.5066 0.3644 -7.8483 0.5066 0.3644 -7.8483 0.5066 0.3644 -7.8483 10.8204 -1.0354 3.0878 16.2487 -1.3300 4.6914 0.0000 0.0000 0.0000 -44.5054 -0.7076 6.7471 -13.5403 3.3013 -11.1311 0.0000 0.0000 0.0000 0.0000 0.0000 0.0000 89.6193 -24.1215 18.4425 -0.0000 0.0000 40.7239 0.0000 0.0000 0.0000 23.4077 -34.9435 21.5407 0.0000 47.0167 0.0000 -10.1929 -13.6334 -11.5725 0.0000 0.0000 0.0000 -26.6966 -28.2110 -52.1216 -360.0000 51.2764 -0.0000 6.0226 -26.9400 6.6518 0.0000 0.0000 0.0000
0.0433 0.8487 -0.0016 -5.1385 18.4099 1.0482 0.6746 0.3691 -7.9143 0.6746 0.3691 -7.9143 0.6746 0.3691 -7.9143 11.1006 -0.3590 3.3318 16.6540 -0.2952 5.0082 0.0000 0.0000 0.0000 -45.2206 -0.5897 8.5238 -13.7858 4.2023 -11.5496 0.0000 0.0000 0.0000 0.0000 0.0000 0.0000 89.1736 -23.3263 17.4035 0.0000 0.0000 40.5573 0.0000 -0.0000 0.0000 24.6811 -34.6403 22.6557 0.0000 47.7541 0.0000 -12.1125 -20.5650 -13.5417 0.0000 0.0000 0.0000 -26.6594 -28.7180 -51.2224 -360.0000 52.4194 0.0000 5.4421 -27.8778 6.0000 0.0000 0.0000 0.0000
0.0428 0.8480 -0.0026 -5.5229 18.1928 0.4630 0.8171 0.3806 -7.9678 0.8171 0.3806 -7.9678 0.8171 0.3806 -7.9678 11.3567 0.1226 3.3950 17.0275 0.4349 5.0667 0.0000 0.0000 0.0000 -45.5639 -0.7104 9.4387 -13.7942 4.4890 -11.7513 0.0000 0.0000 0.0000 0.0000 0.0000 0.0000 89.9131 -22.2668 17.9833 0.0000 0.0000 40.1419 0.0000 0.0000 0.0000 25.5032 -34.3058 23.3306 0.0000 48.0528 0.0000 -12.7066 -22.6998 -14.1425 0.0000 0.0000 0.0000 -26.4779 -29.1299 -50.7219 -360.0000 53.0655 0.0000 5.0032 -31.7160 5.4763 0.0000 0.0000 -0.0000
0.0421 0.8473 -0.0035 -5.8736 18.1086 0.1664 0.9160 0.3962 -7.9911 0.9160 0.3962 -7.9911 0.9160 0.3962 -7.9911 11.5206 0.4868 3.3742 17.2659 0.9812 5.0079 0.0000 0.0000 0.0000 -45.7425 -0.7599 10.0985 -13.9752 4.7171 -11.6608 0.0000 0.0000 0.0000 0.0000 0.0000 0.0000 90.5452 -22.2600 18.1765 -0.0000 -0.0015 39.9110 0.0000 0.0000 0.0000 26.1786 -34.3323 23.7142 0.0000 48.4116 0.0000 -13.4482 -24.0023 -14.9270 0.0000 0.0000 0.0000 -26.1586 -29.4374 -50.2074 -360.0000 53.3369 0.0000 4.7244 -33.3208 5.1559 0.0000 0.0000 0.0000
0.0414 0.8463 -0.0038 -6.1422 17.9826 0.0008 0.9492 0.4160 -7.9834 0.9492 0.4160 -7.9834 0.9492 0.4160 -7.9834 11.6753 0.6590 3.4675 17.4938 1.2491 5.1334 0.0000 0.0000 0.0000 -45.6446 -0.9722 10.4714 -14.0532 4.6516 -11.5044 -0.0000 0.0000 0.0000 0.0000 0.0000 0.0000 90.8874 -21.8975 18.1152 -0.0000 -0.0018 39.9009 0.0000 0.0000 0.0000 26.6238 -34.2484 23.8918 0.0000 48.6281 0.0000 -13.2012 -25.0017 -14.6244 0.0000 0.0000 0.0000 -25.7417 -29.5941 -49.6303 -360.0000 53.4278 0.0000 4.3502 -34.5224 4.7373 0.0000 0.0000 0.0000
