HIERARCHY
ROOT Hips
{
  OFFSET 0.00000 0.90248 0.00000
  CHANNELS 6 Xposition Yposition Zposition Zrotation Xrotation Yrotation
  JOINT LowerBack
  {
    OFFSET 0.00000 0.04808 0.00000
    CHANNELS 3 Zrotation Xrotation Yrotation
    JOINT Spine
    {
      OFFSET 0.00000 0.14425 0.00000
      CHANNELS 3 Zrotation Xrotation Yrotation
      JOINT Spine1
      {
        OFFSET 0.00000 0.14425 0.00000
        CHANNELS 3 Zrotation Xrotation Yrotation
        JOINT Neck
        {
          OFFSET 0.00000 0.14425 0.00000
          CHANNELS 3 Zrotation Xrotation Yrotation
          JOINT Head
          {
            OFFSET 0.00000 0.15852 0.00000
            CHANNELS 3 Zrotation Xrotation Yrotation
            End Site
            {
              OFFSET 0.00000 0.20817 0.00000
            }
          }
        }
        JOINT LeftShoulder
        {
          OFFSET 0.00000 0.14425 0.00000
          CHANNELS 3 Zrotation Xrotation Yrotation
          JOINT LeftArm
          {
            OFFSET 0.19311 0.00000 0.00000
            CHANNELS 3 Zrotation Xrotation Yrotation
            JOINT LeftForeArm
            {
              OFFSET 0.27717 0.00000 0.00000
              CHANNELS 3 Zrotation Xrotation Yrotation
              JOINT LeftHand
              {
                OFFSET 0.24950 0.00000 0.00000
                CHANNELS 3 Zrotation Xrotation Yrotation
                End Site
                {
                  OFFSET 0.09368 0.00000 0.00000
                }
              }
            }
          }
        }
        JOINT RightShoulder
        {
          OFFSET 0.00000 0.14425 0.00000
          CHANNELS 3 Zrotation Xrotation Yrotation
          JOINT RightArm
          {
            OFFSET -0.19311 0.00000 0.00000
            CHANNELS 3 Zrotation Xrotation Yrotation
            JOINT RightForeArm
            {
              OFFSET -0.27717 0.00000 0.00000
              CHANNELS 3 Zrotation Xrotation Yrotation
              JOINT RightHand
              {
                OFFSET -0.24950 0.00000 0.00000
                CHANNELS 3 Zrotation Xrotation Yrotation
                End Site
                {
                  OFFSET -0.09368 0.00000 0.00000
                }
              }
            }
          }
        }
      }
    }
  }
  JOINT LeftUpLeg
  {
    OFFSET 0.08236 0.00000 0.00000
    CHANNELS 3 Zrotation Xrotation Yrotation
    JOINT LeftLeg
    {
      OFFSET 0.00000 -0.38817 0.00000
      CHANNELS 3 Zrotation Xrotation Yrotation
      JOINT LeftFoot
      {
        OFFSET 0.00000 -0.42584 0.00000
        CHANNELS 3 Zrotation Xrotation Yrotation
        JOINT LeftToeBase
        {
          OFFSET 0.00000 -0.08847 0.10656
          CHANNELS 3 Zrotation Xrotation Yrotation
          End Site
          {
            OFFSET 0.00000 0.00000 0.06245
          }
        }
      }
    }
  }
  JOINT RightUpLeg
  {
    OFFSET -0.08236 0.00000 0.00000
    CHANNELS 3 Zrotation Xrotation Yrotation
    JOINT RightLeg
    {
      OFFSET 0.00000 -0.38817 0.00000
      CHANNELS 3 Zrotation Xrotation Yrotation
      JOINT RightFoot
      {
        OFFSET 0.00000 -0.42584 0.00000
        CHANNELS 3 Zrotation Xrotation Yrotation
        JOINT RightToeBase
        {
          OFFSET 0.00000 -0.08847 0.10656
          CHANNELS 3 Zrotation Xrotation Yrotation
          End Site
          {
            OFFSET 0.00000 0.00000 0.06245
          }
        }
      }
    }
  }
}
MOTION
Frames: 120
Frame Time: 0.03333333
0.0000 1.0695 0.0000 -90.9929 74.0532 -126.3812 -11.1625 8.6586 -52.1397 -11.1625 8.6586 -52.1397 -11.1625 8.6586 -52.1397 15.5099 -8.4125 -45.6065 19.7770 -16.3723 -67.9249 0.0000 -0.0000 -0.0000 21.5079 -8.4402 -88.8807 -0.0000 -0.0000 -44.3053 0.0000 -0.0000 -0.0000 0.0000 -0.0000 -0.0000 120.5062 -19.8584 80.3829 -1.1550 -13.8533 34.1054 0.0000 -0.0000 -0.0000 108.2788 46.2849 -56.1403 -4.1364 -11.3732 4.4852 3.1032 62.5390 6.8948 -0.0000 -0.0000 0.0000 154.5023 60.5569 73.2752 -0.0000 33.7615 0.0000 -28.4019 6.2419 -34.5998 0.0000 0.0000 0.0000
0.0742 1.0635 0.0663 -110.6241 75.3844 -106.9857 -15.2392 3.6055 -51.1374 -15.2392 3.6055 -51.1374 -15.2392 3.6055 -51.1374 4.0243 -14.5461 -43.1050 1.6092 -21.8748 -65.5750 0.0000 0.0000 0.0000 5.5182 -5.2472 -89.4735 0.0000 0.0000 -43.1673 0.0000 -0.0000 -0.0000 0.0000 0.0000 0.0000 101.0005 -19.4327 77.2745 -0.9318 -11.4718 34.2513 -0.0000 0.0000 0.0000 109.9048 43.1581 -58.7682 -4.1074 -9.3821 -0.2732 2.4976 61.0120 5.2904 0.0000 0.0000 -0.0000 170.3244 58.7609 68.2804 -0.0000 39.8522 0.0000 -30.6002 17.8193 -38.9217 0.0000 0.0000 0.0000
0.1552 1.0534 0.1423 -204.1930 35.2061 -22.9541 -9.9232 3.4637 -57.3163 -9.9232 3.4637 -57.3163 -9.9232 3.4637 -57.3163 15.7988 -25.2300 -46.3869 14.5466 -40.2924 -71.6177 0.0000 0.0000 0.0000 2.1681 -59.0684 -66.2243 0.0000 -0.0000 -45.8231 0.0000 -0.0000 0.0000 0.0000 0.0000 0.0000 169.7508 52.6830 91.4731 3.2673 25.1724 31.6903 0.0000 0.0000 -0.0000 122.9079 10.8580 -19.8196 -5.6115 1.8218 0.0893 2.5391 52.0803 4.4160 0.0000 0.0000 0.0000 193.6450 5.2872 60.9771 -0.8210 26.5007 1.7067 -37.7020 37.9897 -53.2905 0.0000 -0.0000 0.0000
0.2167 1.0259 0.2116 -222.0645 -5.6773 -18.6067 -1.3411 3.0724 -59.5096 -1.3411 3.0724 -59.5096 -1.3411 3.0724 -59.5096 -42.8325 2.1056 57.3139 -60.0580 -11.8519 83.0396 0.0000 0.0000 0.0000 154.0737 -49.9773 106.5560 0.0000 0.0000 -52.4341 0.0000 0.0000 0.0000 0.0000 0.0000 0.0000 31.0428 50.1483 227.6195 0.0178 1.5182 37.9664 0.0000 0.0000 0.0000 129.9166 -40.5993 46.8633 0.0000 35.9316 0.0000 -1.7438 16.2036 -2.2354 0.0000 0.0000 0.0000 220.8562 -41.0812 -24.5411 -19.0866 1.7943 37.3010 5.2578 -15.3020 6.0576 0.0000 0.0000 0.0000
0.2979 0.9735 0.3018 -247.2286 -13.1754 -24.6814 -47.7394 2.8805 -6.0279 -47.7394 2.8805 -6.0279 -47.7394 2.8805 -6.0279 10.9865 -31.0401 -17.3055 13.2664 -47.3823 -25.8206 0.0000 0.0000 0.0000 -7.8573 20.4727 -51.9223 0.0000 0.0000 -50.9483 0.0000 0.0000 0.0000 0.0000 0.0000 0.0000 143.2796 -11.7800 53.2838 0.0000 0.0000 42.2060 0.0000 0.0000 0.0000 106.6513 -34.7461 222.4950 0.0000 82.3325 -0.0000 5.2726 -5.9639 6.2326 0.0000 -0.0000 0.0000 250.4705 -49.5825 8.4908 -2.2253 27.0732 4.6417 30.1002 -21.5496 33.9346 0.0000 -0.0000 0.0000
0.3946 0.9035 0.3800 -362.7526 25.4251 -6.1571 -3.3649 -3.9180 5.0749 -3.3649 -3.9180 5.0749 -3.3649 -3.9180 5.0749 7.5444 -13.9131 -7.8202 10.7518 -21.1999 -11.2007 0.0000 0.0000 0.0000 -45.0090 76.6340 -0.8304 0.0000 0.0000 -61.7519 0.0000 0.0000 0.0000 0.0000 0.0000 0.0000 103.0612 -2.3917 24.4437 0.0000 0.0000 40.2787 0.0000 0.0000 0.0000 19.7423 -46.2215 400.7904 -0.2466 28.6098 0.5087 -5.9063 5.4136 -7.2444 0.0000 0.0000 0.0000 370.8407 -47.2293 28.3214 0.0000 34.0567 0.0000 9.2809 -30.9764 10.3043 0.0000 0.0000 0.0000
0.4637 0.8669 0.4592 -369.4763 14.3143 5.9291 -1.2027 -0.6435 1.4559 -1.2027 -0.6435 1.4559 -1.2027 -0.6435 1.4559 7.1343 -6.0415 -4.5227 10.5517 -9.2577 -6.5133 0.0000 0.0000 0.0000 -88.2319 56.8427 37.7427 0.0000 0.0000 -60.6393 0.0000 0.0000 0.0000 0.0000 0.0000 0.0000 107.1787 -8.9338 15.4228 0.0000 0.0000 46.7535 0.0000 0.0000 0.0000 17.1516 -35.4239 398.4446 0.0000 32.0474 -0.0000 -15.6238 -9.4776 -18.2464 0.0000 0.0000 -0.0000 369.1890 -37.0928 18.5839 0.0000 33.3002 0.0000 4.4527 -25.2261 5.0088 0.0000 0.0000 0.0000
0.4942 0.8362 0.5442 -370.0755 7.0462 9.5672 -0.1551 -0.2023 1.0081 -0.1551 -0.2023 1.0081 -0.1551 -0.2023 1.0081 7.5914 -2.4919 -5.0443 11.3046 -3.9804 -7.4362 0.0000 0.0000 0.0000 -86.6092 52.4430 37.4504 0.0000 0.0000 -59.9786 0.0000 -0.0000 0.0000 0.0000 0.0000 0.0000 104.3001 0.9531 2.4995 0.0000 0.0000 53.8017 0.0000 0.0000 0.0000 15.7955 -26.1521 394.8726 0.0000 35.0878 0.0000 -26.1859 -22.9622 -29.4733 0.0000 0.0000 0.0000 368.9302 -29.2720 10.5039 0.0000 46.0313 0.0000 1.9029 -40.6674 2.0722 0.0000 0.0000 0.0000
0.5003 0.8367 0.6068 -369.5155 1.6591 14.9353 0.0341 0.0186 -0.4673 0.0341 0.0186 -0.4673 0.0341 0.0186 -0.4673 8.5741 -1.0340 -5.4386 12.8165 -1.8517 -8.0858 0.0000 0.0000 0.0000 -86.4956 50.9346 34.7765 0.0000 0.0000 -53.8546 0.0000 0.0000 0.0000 0.0000 0.0000 0.0000 102.4904 8.1811 -3.2409 0.0000 0.0000 52.4169 0.0000 0.0000 0.0000 14.2090 -14.7213 387.3247 -0.0622 29.2288 0.1269 -27.4892 -32.8524 -30.2863 0.0000 0.0000 0.0000 367.6353 -21.7700 -5.2875 0.0000 61.4110 0.0000 24.5869 -14.3911 28.2572 0.0000 0.0000 0.0000
0.5079 0.8403 0.6575 -368.8848 -0.5186 18.4260 -0.3166 -0.0306 -1.9041 -0.3166 -0.0306 -1.9041 -0.3166 -0.0306 -1.9041 9.5367 0.0469 -3.9285 14.3007 -0.1746 -5.8820 0.0000 0.0000 0.0000 -85.3607 49.2977 34.3912 0.0000 0.0000 -53.3591 0.0000 0.0000 0.0000 0.0000 0.0000 0.0000 100.4601 10.9505 -3.4814 0.0000 0.0000 46.9300 0.0000 0.0000 0.0000 14.0755 -10.0031 383.2790 -0.5503 27.4058 1.1467 -27.1787 -32.4489 -29.9713 0.0000 0.0000 0.0000 365.3023 -19.4475 -7.2776 0.0000 62.2051 0.0000 18.0786 -3.4125 21.4671 0.0000 0.0000 0.0000
0.5119 0.8477 0.7015 -368.3944 -1.5202 19.1716 -0.5230 -0.1304 -2.8768 -0.5230 -0.1304 -2.8768 -0.5230 -0.1304 -2.8768 9.8837 0.3313 -3.1769 14.8287 0.2905 -4.7749 0.0000 0.0000 0.0000 -85.9357 47.2476 35.8335 -0.0000 0.0000 -55.7628 0.0000 0.0000 0.0000 0.0000 0.0000 0.0000 101.2315 12.8245 -6.9068 0.0000 0.0000 46.0922 0.0000 0.0000 0.0000 14.3713 -6.8047 381.0291 -1.5891 25.1865 3.2461 -28.0520 -33.0910 -30.8863 0.0000 0.0000 0.0000 362.2831 -17.6387 -7.9822 0.0000 58.8299 0.0000 16.1017 -16.5489 18.4575 0.0000 0.0000 0.0000
0.5154 0.8361 0.7321 -368.4312 -1.1848 19.0567 -0.5565 -0.2770 -3.7445 -0.5565 -0.2770 -3.7445 -0.5565 -0.2770 -3.7445 9.8653 -0.3243 -3.1923 14.7877 -0.6908 -4.7559 0.0000 0.0000 0.0000 -87.2830 46.2269 35.4702 0.0000 0.0000 -56.4766 0.0000 0.0000 0.0000 0.0000 0.0000 0.0000 101.9962 17.3290 -9.6248 0.0000 0.0000 43.8996 0.0000 0.0000 0.0000 13.5057 -7.1574 384.1933 -0.1470 28.7430 0.3026 -33.0793 -35.3744 -36.2000 0.0000 0.0000 0.0000 357.3102 -17.9992 -6.1597 0.0000 56.9238 0.0000 12.5382 -22.3496 14.1843 0.0000 0.0000 0.0000
0.5180 0.8358 0.7564 -368.3242 -0.9373 18.3442 -0.6273 -0.2736 -4.1561 -0.6273 -0.2736 -4.1561 -0.6273 -0.2736 -4.1561 9.8346 -0.2706 -3.1248 14.7430 -0.6055 -4.6583 0.0000 0.0000 0.0000 -88.7660 46.0586 34.5939 0.0000 0.0000 -56.4651 0.0000 0.0000 0.0000 0.0000 0.0000 0.0000 103.0076 19.6806 -11.4939 0.0000 0.0000 40.1587 0.0000 0.0000 0.0000 12.9738 -7.7023 383.1437 0.0000 32.4677 0.0000 -31.5010 -32.5133 -34.6847 0.0000 0.0000 0.0000 355.0922 -18.6019 -7.5825 0.0000 53.6031 0.0000 12.4338 -25.1261 13.9771 0.0000 0.0000 0.0000
0.5213 0.8241 0.7846 -368.1966 -1.0394 17.0348 -0.7834 -0.2239 -4.2069 -0.7834 -0.2239 -4.2069 -0.7834 -0.2239 -4.2069 9.5581 -0.1704 -3.1379 14.3303 -0.4509 -4.6853 0.0000 0.0000 0.0000 -89.0350 45.3344 34.1527 0.0000 0.0000 -57.7738 0.0000 0.0000 -0.0000 0.0000 0.0000 0.0000 104.5350 21.1884 -13.9468 0.0000 0.0000 40.7643 0.0000 0.0000 0.0000 11.4045 -7.8468 382.8193 0.0000 34.0488 0.0000 -31.0013 -35.1202 -33.9659 0.0000 0.0000 0.0000 353.7598 -17.8267 -7.4348 0.0000 47.8011 0.0000 15.3420 -30.0966 17.0506 0.0000 0.0000 0.0000
0.5256 0.7970 0.8183 -367.6194 -1.7050 12.7222 -1.0205 -0.1170 -3.3399 -1.0205 -0.1170 -3.3399 -1.0205 -0.1170 -3.3399 9.2429 0.1749 -2.6926 13.8648 0.0992 -4.0407 0.0000 0.0000 0.0000 -87.9461 46.3029 33.5143 0.0000 0.0000 -59.2084 0.0000 0.0000 0.0000 0.0000 0.0000 0.0000 104.0628 21.1598 -15.1250 0.0000 0.0000 41.8954 0.0000 0.0000 0.0000 8.0772 -15.0830 381.7255 0.0000 43.7332 -0.0000 -34.9959 -31.7860 -38.5389 0.0000 0.0000 -0.0000 355.7647 -8.1826 -4.5941 0.0000 30.8197 0.0000 16.1607 -35.6329 17.7529 0.0000 0.0000 0.0000
0.5256 0.7933 0.8558 -367.3909 -2.0973 12.0295 -1.0356 -0.0838 -3.3339 -1.0356 -0.0838 -3.3339 -1.0356 -0.0838 -3.3339 8.9757 0.4909 -2.5660 13.4698 0.5843 -3.8700 0.0000 0.0000 0.0000 -87.5198 47.7889 31.7951 -0.0000 0.0000 -59.2616 0.0000 0.0000 0.0000 0.0000 0.0000 0.0000 104.9076 22.5445 -16.6705 0.0000 0.0000 42.1119 0.0000 0.0000 0.0000 10.9284 -5.7044 378.9508 0.0000 41.4409 0.0000 -30.5490 -46.0854 -32.7995 0.0000 0.0000 0.0000 351.2346 -16.9453 -5.6557 0.0439 28.3927 -0.0908 14.9308 -32.8767 16.4980 0.0000 0.0000 0.0000
0.4985 0.7909 0.8959 -367.0141 -2.7644 11.6428 -1.1709 0.0089 -3.2924 -1.1709 0.0089 -3.2924 -1.1709 0.0089 -3.2924 8.7537 1.0612 -2.4156 13.1465 1.4502 -3.6773 0.0000 0.0000 0.0000 -85.1785 48.4929 28.8931 0.0000 -0.0000 -59.3084 0.0000 0.0000 0.0000 0.0000 0.0000 0.0000 106.0399 25.4064 -17.1423 0.0000 0.0000 42.9540 0.0000 0.0000 0.0000 12.1530 -2.6081 373.8010 0.0000 41.6436 0.0000 -15.7821 -44.7225 -17.0344 0.0000 0.0000 0.0000 350.2056 -19.7195 -5.2650 0.3478 24.6633 -0.7005 15.6862 -32.0197 17.3614 0.0000 0.0000 0.0000
0.4795 0.7887 0.9234 -366.7122 -3.0034 11.2461 -1.3103 0.0591 -3.2715 -1.3103 0.0591 -3.2715 -1.3103 0.0591 -3.2715 8.7050 1.1401 -2.3124 13.0743 1.5751 -3.5272 0.0000 0.0000 0.0000 -80.9023 47.0206 25.0243 0.0000 0.0000 -61.8447 0.0000 0.0000 0.0000 0.0000 0.0000 0.0000 106.2218 26.7169 -17.1969 0.0000 0.0000 42.6810 0.0000 -0.0000 0.0000 12.9215 -0.5871 371.1207 0.0000 41.7877 0.0000 -10.2436 -45.5233 -11.0465 0.0000 0.0000 0.0000 349.9436 -20.1906 -3.9814 0.5606 21.3955 -0.9707 14.8550 -32.1326 16.4400 0.0000 0.0000 0.0000
0.4631 0.7869 0.9446 -366.3877 -3.1352 10.9096 -1.3329 0.0986 -3.3816 -1.3329 0.0986 -3.3816 -1.3329 0.0986 -3.3816 8.4537 1.0561 -2.2701 12.6957 1.4556 -3.4576 0.0000 0.0000 0.0000 -76.4213 46.5651 19.7927 0.0000 0.0000 -62.5423 0.0000 0.0000 0.0000 0.0000 0.0000 0.0000 105.5485 27.9013 -16.7306 -0.0000 0.0000 42.4728 0.0000 0.0000 0.0000 13.3948 1.3741 369.0298 0.0000 41.0199 -0.0000 -6.2086 -46.6613 -6.6827 0.0000 0.0000 -0.0000 350.6516 -19.5130 -3.6665 1.2216 17.9819 -1.5221 13.6174 -31.1621 15.1042 0.0000 0.0000 0.0000
0.4508 0.7948 0.9599 -366.0120 -3.0784 10.6543 -1.4029 0.1272 -3.4747 -1.4029 0.1272 -3.4747 -1.4029 0.1272 -3.4747 8.3244 1.0116 -2.2487 12.5009 1.3921 -3.4224 0.0000 0.0000 0.0000 -71.4917 47.7781 14.0308 0.0000 0.0000 -61.8937 0.0000 0.0000 0.0000 0.0000 0.0000 0.0000 105.0783 28.7741 -16.3878 0.0000 0.0000 42.1314 0.0000 0.0000 -0.0000 13.7570 3.1290 367.4143 0.0000 39.8532 0.0000 -1.7460 -48.6435 -1.8726 0.0000 0.0000 0.0000 351.7165 -17.5715 -1.3622 0.3510 12.6611 -0.1148 10.5973 -29.3096 11.8062 0.0000 0.0000 0.0000
0.4485 0.8003 0.9898 -365.6051 -2.9103 10.4229 -1.4905 0.1683 -3.5568 -1.4905 0.1683 -3.5568 -1.4905 0.1683 -3.5568 8.1290 0.8764 -2.2132 12.2054 1.1946 -3.3610 0.0000 0.0000 0.0000 -67.9298 47.9435 9.1816 0.0000 0.0000 -61.0031 0.0000 0.0000 0.0000 0.0000 0.0000 0.0000 104.1722 28.1540 -15.8520 0.0000 0.0000 41.0603 0.0000 0.0000 0.0000 13.7926 4.1796 366.6461 0.0000 39.3159 0.0000 3.2145 -56.0935 3.4015 0.0000 0.0000 0.0000 352.3400 -16.8710 -1.1374 -0.7713 10.0576 0.0681 11.4628 -25.0613 12.8895 0.0000 0.0000 0.0000
0.4449 0.7992 1.0222 -365.2169 -2.7983 10.1949 -1.5867 0.2393 -3.6655 -1.5867 0.2393 -3.6655 -1.5867 0.2393 -3.6655 7.9897 0.7469 -2.2105 11.9943 1.0030 -3.3496 0.0000 0.0000 0.0000 -64.4455 48.3821 5.2559 0.0000 0.0000 -60.4772 0.0000 0.0000 0.0000 0.0000 0.0000 0.0000 103.8291 28.0313 -15.6841 0.0000 -0.0000 40.4950 0.0000 0.0000 0.0000 13.7990 4.5569 367.5240 0.0000 39.8167 0.0000 0.7918 -57.5549 0.8357 0.0000 0.0000 0.0000 353.1219 -16.8591 -1.0012 -1.8359 10.3526 0.1856 12.0154 -19.8010 13.6764 0.0000 0.0000 0.0000
0.4413 0.8003 1.0375 -364.8914 -2.5042 9.9398 -1.7155 0.2684 -3.7132 -1.7155 0.2684 -3.7132 -1.7155 0.2684 -3.7132 8.0378 0.6308 -2.1660 12.0645 0.8307 -3.2769 0.0000 0.0000 0.0000 -63.1029 48.3919 4.2817 0.0000 -0.0000 -60.7342 0.0000 0.0000 0.0000 0.0000 0.0000 0.0000 103.5428 27.5290 -15.5246 0.0000 0.0000 40.2645 0.0000 0.0000 0.0000 13.9320 4.7741 367.6841 0.0000 40.7820 0.0000 -0.6400 -59.1035 -0.6737 0.0000 0.0000 0.0000 353.4482 -16.7680 -0.7332 -2.1547 11.5663 0.4465 11.5221 -5.0525 13.6421 0.0000 0.0000 0.0000
0.4367 0.8023 1.0576 -364.5995 -2.1921 9.6717 -1.8336 0.2941 -3.7583 -1.8336 0.2941 -3.7583 -1.8336 0.2941 -3.7583 8.0659 0.5113 -2.0178 12.1046 0.6592 -3.0487 0.0000 0.0000 0.0000 -62.7705 48.1143 4.3567 0.0000 0.0000 -61.0715 0.0000 0.0000 0.0000 0.0000 0.0000 0.0000 103.4705 27.7069 -15.5086 0.0000 0.0000 40.1614 0.0000 0.0000 0.0000 14.1385 4.5965 368.0888 0.0000 43.0468 0.0000 -3.6428 -57.8556 -3.8428 0.0000 0.0000 0.0000 353.6763 -16.9148 -0.2587 -2.3897 12.8050 0.9087 11.0749 -1.3488 13.2637 0.0000 0.0000 0.0000
0.4315 0.8067 1.0880 -364.3399 -2.0673 9.3354 -1.9569 0.3696 -3.7572 -1.9569 0.3696 -3.7572 -1.9569 0.3696 -3.7572 8.0161 0.4376 -1.8663 12.0286 0.5574 -2.8179 0.0000 0.0000 0.0000 -63.2473 47.5803 6.1158 0.0000 0.0000 -61.7731 0.0000 0.0000 0.0000 0.0000 0.0000 0.0000 103.7620 28.7326 -15.7373 0.0000 0.0000 40.4024 0.0000 0.0000 0.0000 14.3265 4.2239 368.0048 0.0000 45.4096 0.0000 -1.6879 -53.6342 -1.7940 0.0000 0.0000 0.0000 354.4536 -16.7678 1.3281 -2.5300 15.3872 2.0789 9.5019 -1.7860 11.3682 0.0000 0.0000 0.0000
0.4277 0.8126 1.1269 -364.2017 -1.6857 8.9803 -2.0470 0.3276 -3.6182 -2.0470 0.3276 -3.6182 -2.0470 0.3276 -3.6182 8.0388 0.3920 -1.8517 12.0620 0.4896 -2.7936 0.0000 0.0000 0.0000 -65.2679 46.2463 8.7647 0.0000 0.0000 -62.3221 0.0000 0.0000 0.0000 0.0000 0.0000 0.0000 103.4890 29.3903 -16.3239 0.0000 0.0000 40.9696 0.0000 0.0000 0.0000 14.6401 4.0207 367.8196 0.0000 48.6259 0.0000 -2.8484 -49.4318 -3.0506 0.0000 -0.0000 0.0000 355.1235 -15.6145 2.3513 -2.4464 16.6732 2.5594 8.5461 -3.0948 10.1850 0.0000 0.0000 0.0000
0.4236 0.8209 1.1702 -364.0847 -1.3815 8.5238 -2.1396 0.2837 -3.3294 -2.1396 0.2837 -3.3294 -2.1396 0.2837 -3.3294 8.0733 0.3607 -1.8851 12.1134 0.4407 -2.8420 0.0000 0.0000 0.0000 -69.7747 45.6418 14.7898 0.0000 0.0000 -63.9703 0.0000 0.0000 0.0000 0.0000 0.0000 0.0000 103.5015 29.2253 -16.6513 -0.0000 -0.0000 41.0522 0.0000 0.0000 0.0000 14.7161 2.7878 368.0282 0.0000 52.1178 0.0000 -4.8830 -45.7019 -5.2657 0.0000 0.0000 0.0000 355.8155 -13.9678 3.5590 -2.1109 18.4396 2.8166 7.5412 -5.9965 8.9108 0.0000 0.0000 0.0000
0.4175 0.8296 1.2126 -364.0079 -0.9772 7.9101 -2.2319 0.2308 -2.8908 -2.2319 0.2308 -2.8908 -2.2319 0.2308 -2.8908 8.1255 0.3611 -1.8677 12.1917 0.4416 -2.8161 0.0000 0.0000 0.0000 -73.2572 47.0347 17.9417 0.0000 0.0000 -63.1043 0.0000 0.0000 0.0000 0.0000 0.0000 0.0000 103.5601 27.8396 -16.1418 0.0000 0.0016 39.9140 0.0000 0.0000 0.0000 13.9589 -1.1128 368.3330 -0.0000 57.9509 0.0000 -13.4043 -45.3099 -14.4562 0.0000 0.0000 0.0000 356.8678 -11.8112 4.7111 -2.2755 18.9768 3.2340 6.6466 -8.6734 7.7943 0.0000 0.0000 0.0000
0.4093 0.8381 1.2439 -363.9306 -0.6443 6.9370 -2.2731 0.1689 -2.4047 -2.2731 0.1689 -2.4047 -2.2731 0.1689 -2.4047 8.1125 0.3398 -1.8348 12.1719 0.4114 -2.7656 0.0000 0.0000 0.0000 -76.8072 48.2391 21.8807 -0.0000 0.0000 -61.4935 0.0000 -0.0000 -0.0000 0.0000 0.0000 0.0000 103.3252 26.4688 -15.6118 -0.0000 -0.0000 40.0131 0.0000 0.0000 0.0000 12.8567 -6.8190 369.6679 0.0000 65.7962 -0.0000 -23.9471 -41.0071 -25.9918 0.0000 0.0000 0.0000 358.3650 -8.1714 4.7649 -3.5863 16.8192 3.9741 6.1265 -10.1038 7.1562 0.0000 0.0000 0.0000
0.4022 0.8549 1.2625 -363.7939 -0.3827 5.7140 -2.3378 0.1176 -1.8781 -2.3378 0.1176 -1.8781 -2.3378 0.1176 -1.8781 8.1597 0.3742 -1.7485 12.2430 0.4671 -2.6382 0.0000 0.0000 0.0000 -80.0584 48.4287 25.6054 0.0000 0.0000 -60.5277 0.0000 0.0000 0.0000 0.0000 0.0000 0.0000 103.6364 25.8607 -15.3925 0.0000 0.0000 40.0871 0.0000 0.0000 0.0000 11.7962 -13.0679 371.3898 0.0000 72.3478 -0.0000 -22.6836 -33.1262 -25.0111 0.0000 0.0000 0.0000 359.7950 -4.1271 1.2746 -5.9037 11.0807 1.7985 9.1794 -7.5480 10.7948 0.0000 0.0000 0.0000
0.3987 0.8604 1.2839 -363.7116 -0.1443 4.4769 -2.4187 0.0700 -1.3336 -2.4187 0.0700 -1.3336 -2.4187 0.0700 -1.3336 8.2471 0.3898 -1.7037 12.3742 0.4919 -2.5722 0.0000 0.0000 0.0000 -83.0563 48.2440 29.0275 0.0000 0.0000 -59.7196 0.0000 0.0000 0.0000 0.0000 0.0000 0.0000 104.6023 25.9503 -15.2175 0.0000 0.0000 40.4363 0.0000 0.0000 0.0000 10.7453 -20.9353 374.6362 0.0000 78.0147 -0.0000 -14.4427 -18.8721 -16.4682 0.0000 0.0000 0.0000 360.6313 -0.8678 0.0048 -6.9747 6.4775 0.3952 11.3554 -5.5907 13.4239 0.0000 0.0000 0.0000
0.3960 0.8573 1.3105 -363.6407 -0.1552 3.2218 -2.5017 0.0253 -0.7266 -2.5017 0.0253 -0.7266 -2.5017 0.0253 -0.7266 8.0245 0.7236 -1.8919 12.0450 0.9844 -2.8713 0.0000 0.0000 0.0000 -86.0469 47.5605 32.8182 -0.0000 0.0000 -59.2031 0.0000 0.0000 0.0000 0.0000 0.0000 0.0000 105.7331 26.3258 -14.6586 0.0000 0.0000 40.8622 0.0000 0.0000 0.0000 10.2371 -26.3856 378.4419 0.0000 80.2939 0.0000 -14.4676 -18.7670 -16.5007 0.0000 -0.0000 0.0000 360.7470 1.8180 -0.0119 -6.9588 4.6021 0.2800 11.6041 -6.1868 13.6932 0.0000 0.0000 0.0000
0.4002 0.8548 1.3406 -363.5468 -0.4517 2.0453 -2.4996 0.0014 -0.2011 -2.4996 0.0014 -0.2011 -2.4996 0.0014 -0.2011 7.9969 0.4554 -2.1663 12.0005 0.5687 -3.2681 0.0000 0.0000 0.0000 -88.5315 46.2799 36.1931 0.0000 -0.0000 -58.7207 0.0000 0.0000 0.0000 0.0000 0.0000 0.0000 106.0476 27.1637 -13.5999 0.0000 0.0000 42.5152 0.0000 0.0000 0.0000 10.1373 -28.3515 382.8200 -0.0000 78.5594 0.0000 -20.8471 -24.1598 -23.4415 0.0000 0.0000 0.0000 360.2839 3.9257 -0.0097 -5.8792 4.3847 0.2253 11.2596 -7.6894 13.2302 0.0000 0.0000 0.0000
0.4143 0.8550 1.3766 -363.4838 -0.5872 1.1357 -2.4591 0.0077 0.2643 -2.4591 0.0077 0.2643 -2.4591 0.0077 0.2643 8.1385 -0.1301 -2.4252 12.2039 -0.3238 -3.6247 0.0000 0.0000 0.0000 -87.7618 43.7095 37.5730 0.0000 0.0000 -58.7017 0.0000 0.0000 0.0000 0.0000 0.0000 0.0000 104.3322 24.6932 -10.7469 0.0000 0.0000 47.0273 0.0000 0.0000 0.0000 9.8285 -31.9822 387.5171 0.0000 75.6519 0.0000 -22.0295 -20.6949 -24.9590 0.0000 0.0000 0.0000 358.9385 4.9958 0.0463 -5.0627 6.5152 0.2883 11.0190 -10.9195 12.8324 0.0000 0.0000 0.0000
0.4269 0.8506 1.4167 -363.4893 -0.6788 0.5703 -2.4304 0.0376 0.6599 -2.4304 0.0376 0.6599 -2.4304 0.0376 0.6599 8.4352 -0.7716 -2.6597 12.6380 -1.3018 -3.9401 0.0000 0.0000 0.0000 -87.2698 43.5707 38.0218 0.0000 0.0000 -58.5329 0.0000 0.0000 0.0000 0.0000 0.0000 0.0000 101.4748 23.1012 -6.7198 0.0000 0.0000 48.2507 0.0000 0.0000 0.0000 9.4886 -33.4772 391.4372 0.0000 69.1611 -0.0000 -22.1926 -19.1304 -25.2349 0.0000 -0.0000 0.0000 357.6029 6.7425 0.1412 -4.8378 8.1682 0.3456 9.0220 -14.8503 10.4018 0.0000 0.0000 0.0000
0.4344 0.8420 1.4611 -363.5409 -0.7330 0.2299 -2.4201 0.0818 1.0983 -2.4201 0.0818 1.0983 -2.4201 0.0818 1.0983 8.6392 -1.1052 -2.9403 12.9364 -1.8204 -4.3403 0.0000 0.0000 0.0000 -87.8058 43.5325 38.3157 0.0000 0.0000 -57.5219 0.0000 -0.0000 0.0000 0.0000 0.0000 0.0000 98.3482 22.3731 -1.9220 0.0000 0.0000 47.1721 0.0000 0.0000 0.0000 8.8901 -33.5955 394.2595 0.0000 60.4859 0.0000 -23.3062 -18.6856 -26.5192 0.0000 0.0000 0.0000 356.7906 8.9932 0.2574 -4.4311 9.1525 0.3598 8.6945 -18.3581 9.9365 0.0000 0.0000 0.0000
0.4414 0.8325 1.5096 -363.6221 -0.8502 0.0127 -2.3988 0.1135 1.4714 -2.3988 0.1135 1.4714 -2.3988 0.1135 1.4714 8.8345 -1.3854 -3.2192 13.2218 -2.2593 -4.7402 0.0000 0.0000 0.0000 -88.7165 45.1181 38.9531 0.0000 0.0000 -57.0684 0.0000 0.0000 0.0000 0.0000 0.0000 0.0000 96.5547 21.0255 1.0937 0.0000 0.0000 46.9802 0.0000 0.0000 0.0000 8.1851 -31.7752 394.7996 0.0000 52.5659 0.0000 -26.6501 -18.4759 -30.3008 0.0000 0.0000 0.0000 356.2653 12.5220 0.4099 -4.2696 8.6354 0.3225 9.1333 -21.8395 10.3502 0.0000 0.0000 0.0000
0.4481 0.8191 1.5509 -363.7514 -1.0050 -0.1383 -2.3610 0.1375 1.7487 -2.3610 0.1375 1.7487 -2.3610 0.1375 1.7487 8.9932 -1.7494 -3.4397 13.4506 -2.8200 -5.0476 0.0000 0.0000 0.0000 -89.9915 46.1978 40.2345 0.0000 0.0000 -56.7753 0.0000 0.0000 0.0000 0.0000 0.0000 0.0000 95.7684 19.6316 2.4432 0.0000 0.0000 47.6993 -0.0000 0.0000 0.0000 7.0741 -29.0538 394.8606 0.0000 45.8259 0.0000 -26.8071 -20.9409 -30.3037 -0.0000 0.0000 0.0000 355.4034 15.3119 0.6419 -3.6281 9.7509 0.3333 10.3739 -26.3180 11.6340 0.0000 0.0000 0.0000
0.4520 0.8089 1.5757 -363.9330 -1.2607 -0.2080 -2.3062 0.1563 2.0484 -2.3062 0.1563 2.0484 -2.3062 0.1563 2.0484 9.1247 -2.0314 -3.6806 13.6392 -3.2592 -5.3902 0.0000 0.0000 0.0000 -90.8941 47.0238 41.4295 0.0000 0.0000 -56.7823 0.0000 0.0000 0.0000 0.0000 0.0000 0.0000 95.3420 18.4884 3.4150 0.0000 0.0000 47.9188 0.0000 0.0000 0.0000 6.2003 -27.1346 393.8336 0.0000 40.6666 0.0000 -24.9528 -25.5705 -27.9358 0.0000 0.0000 0.0000 354.6546 17.0925 1.1283 -3.0765 11.3257 0.6227 12.2387 -30.2567 13.6041 0.0000 0.0000 0.0000
0.4502 0.7983 1.5946 -364.1313 -1.4088 -0.2502 -2.2511 0.1623 2.2214 -2.2511 0.1623 2.2214 -2.2511 0.1623 2.2214 9.3046 -2.2146 -3.8283 13.9032 -3.5462 -5.5979 0.0000 0.0000 0.0000 -91.5498 47.5348 42.4364 -0.0000 0.0000 -56.9409 0.0000 -0.0000 0.0000 0.0000 0.0000 0.0000 94.4384 18.0824 5.5851 -0.0000 -0.0000 47.6680 0.0000 0.0000 0.0000 5.9395 -25.1348 393.2409 0.0000 34.2725 0.0000 -22.3510 -26.8961 -24.9708 0.0000 0.0000 0.0000 354.2058 18.0425 1.5392 -2.5645 12.4895 0.8674 12.8615 -34.6505 14.1642 0.0000 0.0000 0.0000
0.4506 0.7975 1.6244 -364.3240 -1.4936 -0.3381 -2.1974 0.1647 2.3381 -2.1974 0.1647 2.3381 -2.1974 0.1647 2.3381 9.4634 -2.3270 -3.9224 14.1376 -3.7239 -5.7293 0.0000 0.0000 0.0000 -92.1474 48.0120 43.0127 0.0000 0.0000 -56.4307 0.0000 0.0000 0.0000 0.0000 0.0000 0.0000 93.7691 17.5079 7.3630 0.0000 0.0000 47.6919 0.0000 0.0000 0.0000 6.0925 -23.4228 391.5664 -0.0004 29.9456 0.0008 -18.0048 -27.6260 -20.1056 0.0000 0.0000 0.0000 354.6030 20.3006 1.2948 -2.6671 11.5869 0.5903 13.2271 -44.7694 14.2799 0.0000 0.0000 0.0000
0.4491 0.8003 1.6591 -364.5118 -1.5683 -0.2141 -2.1481 0.1627 2.3857 -2.1481 0.1627 2.3857 -2.1481 0.1627 2.3857 9.6193 -2.3207 -3.9840 14.3706 -3.7219 -5.8192 0.0000 0.0000 0.0000 -92.7214 48.5272 43.5074 0.0000 0.0000 -55.6366 0.0000 0.0000 0.0000 0.0000 0.0000 0.0000 93.5462 17.2741 8.0032 0.0000 0.0000 47.5679 0.0000 0.0000 0.0000 6.2000 -22.6674 388.8273 -0.0053 29.7879 0.0106 -15.7010 -26.6521 -17.5792 0.0000 0.0000 0.0000 355.4174 20.6235 1.5387 -2.8889 12.4340 0.9827 13.0394 -45.8632 14.0486 0.0000 0.0000 0.0000
0.4466 0.8061 1.6952 -364.6817 -1.6866 0.0675 -2.0877 0.1553 2.3867 -2.0877 0.1553 2.3867 -2.0877 0.1553 2.3867 9.7614 -2.1943 -3.9928 14.5862 -3.5368 -5.8375 0.0000 0.0000 0.0000 -93.3282 48.8372 43.8318 0.0000 -0.0000 -54.0992 0.0000 0.0000 0.0000 0.0000 0.0000 0.0000 93.6308 17.3333 7.7977 0.0000 0.0000 47.4728 0.0000 0.0000 0.0000 6.4035 -21.9946 385.6924 0.0000 31.0668 0.0000 -11.9050 -25.8140 -13.3631 0.0000 0.0000 0.0000 357.2217 20.2901 2.8201 -3.0380 14.9706 2.3234 14.9432 -44.9765 16.1230 0.0000 0.0000 0.0000
0.4450 0.8134 1.7147 -364.8623 -1.6895 0.5717 -2.0285 0.1364 2.2455 -2.0285 0.1364 2.2455 -2.0285 0.1364 2.2455 9.8922 -1.9793 -3.9466 14.7875 -3.2155 -5.7795 0.0000 0.0000 0.0000 -93.7087 48.9949 43.7097 0.0000 0.0000 -52.3380 0.0000 0.0000 0.0000 0.0000 0.0000 0.0000 93.7863 17.6181 7.5425 0.0000 0.0000 47.4375 0.0000 0.0000 0.0000 6.5756 -21.5092 384.4276 0.0000 32.0896 0.0000 -7.5174 -15.5418 -8.6534 0.0000 0.0000 0.0000 358.4814 19.8492 4.1809 -3.1303 16.5998 3.2997 13.6134 -40.3223 14.8220 0.0000 0.0000 0.0000
0.4441 0.8218 1.7443 -365.0331 -1.5339 1.2439 -1.9683 0.1104 1.9203 -1.9683 0.1104 1.9203 -1.9683 0.1104 1.9203 9.9841 -1.7522 -3.8814 14.9309 -2.8738 -5.6950 0.0000 0.0000 0.0000 -93.2326 48.3806 43.1171 0.0000 0.0000 -51.4000 0.0000 0.0000 0.0000 0.0000 0.0000 0.0000 94.3215 18.1748 6.8232 0.0000 0.0000 47.9385 0.0000 0.0000 0.0000 6.8083 -20.9093 383.0771 0.0000 33.5809 0.0000 -6.9000 -14.1529 -7.9719 0.0000 0.0000 0.0000 359.7031 19.1299 5.1146 -2.5797 18.4481 3.4717 14.4048 -33.9998 15.8814 0.0000 0.0000 0.0000
0.4418 0.8315 1.7832 -365.1795 -1.1979 1.9644 -1.8871 0.0811 1.4562 -1.8871 0.0811 1.4562 -1.8871 0.0811 1.4562 9.9913 -1.6079 -3.7653 14.9462 -2.6507 -5.5303 0.0000 0.0000 0.0000 -92.3949 47.4132 42.3923 0.0000 0.0000 -51.4515 0.0000 0.0000 0.0000 0.0000 0.0000 0.0000 94.9888 18.9408 5.3781 0.0000 0.0000 48.8466 0.0000 0.0000 0.0000 7.1675 -19.6335 382.4658 0.0000 35.3402 0.0000 -6.5663 -15.7060 -7.5563 0.0000 0.0000 0.0000 360.7003 17.5656 6.9442 -1.8073 21.3266 3.1311 14.4473 -27.4822 16.1498 0.0000 0.0000 0.0000
0.4362 0.8397 1.8176 -365.3264 -0.7822 2.6255 -1.7785 0.0467 0.8189 -1.7785 0.0467 0.8189 -1.7785 0.0467 0.8189 9.9576 -1.3953 -3.6037 14.9019 -2.3215 -5.3022 0.0000 0.0000 0.0000 -91.7453 46.7249 41.9503 0.0000 0.0000 -51.9866 0.0000 0.0000 0.0000 0.0000 0.0000 0.0000 96.5781 19.1715 2.1389 0.0000 0.0000 50.9476 0.0000 0.0000 0.0000 7.9083 -16.4456 384.0504 0.0000 34.0330 0.0000 -7.8336 -16.3694 -8.9981 0.0000 0.0000 0.0000 361.2580 14.5534 8.7166 -0.5192 25.9250 1.0728 15.1053 -19.9411 17.1769 0.0000 0.0000 0.0000
0.4305 0.8458 1.8463 -365.4612 -0.2552 3.0935 -1.6517 -0.0017 -0.0280 -1.6517 -0.0017 -0.0280 -1.6517 -0.0017 -0.0280 9.8930 -1.1350 -3.3354 14.8127 -1.9133 -4.9180 0.0000 0.0000 0.0000 -88.7948 43.1076 40.2432 0.0000 0.0000 -53.4825 0.0000 0.0000 0.0000 0.0000 0.0000 0.0000 98.9650 21.1029 -2.4850 0.0000 0.0000 53.2561 0.0000 0.0000 0.0000 8.6987 -13.1536 387.4623 0.0000 30.4084 0.0000 -9.1073 -15.3280 -10.4871 0.0000 0.0000 0.0000 360.8834 7.5967 5.6853 0.0000 35.4821 0.0000 16.1557 -19.7124 18.3769 0.0000 0.0000 0.0000
0.4256 0.8555 1.8791 -365.6016 0.3577 3.6759 -1.5087 -0.0579 -0.8126 -1.5087 -0.0579 -0.8126 -1.5087 -0.0579 -0.8126 9.7650 -0.9618 -3.1117 14.6259 -1.6373 -4.5953 0.0000 0.0000 0.0000 -86.8620 41.1502 38.9508 -0.0000 0.0000 -55.5805 0.0000 0.0000 0.0000 0.0000 0.0000 0.0000 101.6223 24.5289 -6.8011 0.0000 0.0000 53.0015 0.0000 0.0000 0.0000 9.5736 -9.2135 390.7934 -1.6141 26.0600 3.3438 -12.7851 -12.6613 -14.8144 0.0000 0.0000 -0.0000 359.9969 0.7635 3.6801 0.0000 43.0486 0.0000 17.1692 -15.0398 19.7502 0.0000 0.0000 0.0000
0.4190 0.8552 1.9113 -365.6593 0.8851 4.6510 -1.4352 -0.1148 -1.5205 -1.4352 -0.1148 -1.5205 -1.4352 -0.1148 -1.5205 9.7035 -0.7014 -3.1671 14.5379 -1.2501 -4.6951 0.0000 0.0000 0.0000 -86.2880 39.7012 37.0697 0.0000 0.0000 -56.7688 0.0000 0.0000 0.0000 0.0000 0.0000 0.0000 103.3867 27.9590 -9.7234 0.0000 0.0000 47.5548 0.0000 0.0000 0.0000 10.5172 -4.8728 389.9358 -5.4899 21.9179 10.2651 -16.0505 -10.2514 -18.7027 0.0000 0.0000 0.0000 359.9010 -12.1676 2.2791 0.0000 58.5766 0.0000 18.7305 -1.8693 22.3402 0.0000 0.0000 0.0000
0.4055 0.8565 1.9386 -365.7166 1.1365 5.8704 -1.3981 -0.1554 -2.1247 -1.3981 -0.1554 -2.1247 -1.3981 -0.1554 -2.1247 9.6425 -0.3904 -3.1962 14.4521 -0.7853 -4.7586 0.0000 0.0000 0.0000 -85.9568 40.2230 34.5103 0.0000 0.0000 -57.8542 0.0000 0.0000 0.0000 0.0000 0.0000 0.0000 104.4680 29.0167 -11.4324 0.0000 0.0000 42.2303 0.0000 0.0000 0.0000 11.4278 -3.0775 389.9921 -5.9131 21.5481 10.9225 -17.4783 -10.7765 -20.3288 0.0000 0.0000 0.0000 358.7158 -19.9983 2.5877 0.0000 64.4678 0.0000 18.7582 4.3330 22.8295 0.0000 0.0000 0.0000
0.3996 0.8583 1.9651 -365.7929 1.1999 6.7873 -1.3807 -0.1829 -2.5795 -1.3807 -0.1829 -2.5795 -1.3807 -0.1829 -2.5795 9.5684 0.0698 -3.1261 14.3505 -0.0909 -4.6826 0.0000 0.0000 0.0000 -84.6957 42.3506 30.5679 0.0000 0.0000 -57.1130 0.0000 0.0000 0.0000 0.0000 0.0000 0.0000 105.3984 29.7982 -12.6779 0.0003 0.1317 39.1952 0.0000 0.0000 0.0000 12.0836 -2.3096 383.4829 -5.5767 20.9089 9.8713 -14.2509 -14.6815 -16.4206 0.0000 0.0000 0.0000 355.7285 -24.2463 3.7740 0.0000 65.9901 0.0000 21.9042 -10.5659 25.4510 0.0000 0.0000 0.0000
0.4122 0.8559 1.9888 -365.8530 1.1484 7.6059 -1.3804 -0.1947 -3.0240 -1.3804 -0.1947 -3.0240 -1.3804 -0.1947 -3.0240 9.5107 0.5948 -2.9573 14.2747 0.7062 -4.4628 0.0000 0.0000 0.0000 -82.4248 45.8024 24.9579 0.0000 0.0000 -55.1810 0.0000 0.0000 0.0000 0.0000 0.0000 0.0000 105.2780 28.0175 -12.9998 0.0016 0.3302 38.6993 0.0000 0.0000 0.0000 12.1858 -2.1253 387.2851 -2.9193 24.2106 5.8427 -16.1718 -17.6509 -18.4872 0.0000 0.0000 0.0000 353.4379 -25.6750 3.0952 0.0000 57.3854 -0.0000 16.3073 -29.9793 18.1246 0.0000 0.0000 0.0000
0.4250 0.8524 2.0158 -365.9478 0.9878 8.1212 -1.3783 -0.1973 -3.4590 -1.3783 -0.1973 -3.4590 -1.3783 -0.1973 -3.4590 9.4722 0.8448 -2.7308 14.2214 1.0951 -4.1393 0.0000 0.0000 0.0000 -81.0029 46.3311 22.5938 0.0000 0.0000 -55.8888 0.0000 0.0000 0.0000 0.0000 0.0000 0.0000 105.9277 26.8327 -15.0215 0.0000 0.0000 40.3520 0.0000 0.0000 0.0000 12.0599 -1.2892 391.4785 -1.5063 26.2920 3.1278 -18.7633 -19.3764 -21.3455 0.0000 0.0000 0.0000 350.7192 -27.4767 1.5433 0.0000 53.6476 0.0000 19.2782 -26.9440 21.5532 0.0000 0.0000 0.0000
0.4373 0.8469 2.0522 -366.0925 0.6312 8.2645 -1.3716 -0.1929 -3.8426 -1.3716 -0.1929 -3.8426 -1.3716 -0.1929 -3.8426 9.4025 1.0500 -2.3526 14.1191 1.4267 -3.5858 0.0000 0.0000 0.0000 -79.9869 45.6861 21.5675 0.0000 -0.0000 -56.8425 0.0000 0.0000 0.0000 0.0000 0.0000 0.0000 106.1458 26.3540 -16.3767 0.0000 0.0000 42.1850 0.0000 0.0000 0.0000 12.0365 -0.0554 390.2144 -0.3311 28.3205 0.6856 -18.4392 -24.5996 -20.7266 0.0000 0.0000 0.0000 348.6615 -28.3715 2.0285 0.0000 48.8509 0.0000 18.4238 -29.8735 20.4725 0.0000 0.0000 0.0000
0.4453 0.8349 2.0820 -366.1986 0.2989 8.0615 -1.3682 -0.1753 -4.0820 -1.3682 -0.1753 -4.0820 -1.3682 -0.1753 -4.0820 9.3765 0.9292 -2.0872 14.0767 1.2627 -3.1809 0.0000 0.0000 0.0000 -77.2506 44.9545 19.0606 0.0000 0.0000 -58.0658 0.0000 0.0000 0.0000 0.0000 0.0000 0.0000 105.6680 26.0473 -16.9416 0.0000 0.0000 44.2406 0.0000 0.0000 0.0000 11.8806 1.7093 389.2193 0.0000 31.0255 0.0000 -18.7600 -31.3076 -20.7817 0.0000 0.0000 0.0000 345.0023 -24.8492 1.1130 0.0000 36.7445 0.0000 15.7728 -34.4475 17.3697 0.0000 0.0000 0.0000
0.4395 0.8263 2.1008 -366.0974 -0.0990 7.4018 -1.4142 -0.1040 -4.2281 -1.4142 -0.1040 -4.2281 -1.4142 -0.1040 -4.2281 9.2855 0.8853 -1.7339 13.9381 1.2197 -2.6491 0.0000 0.0000 0.0000 -72.5787 45.8468 13.6644 0.0000 0.0000 -57.3691 0.0000 0.0000 0.0000 0.0000 0.0000 0.0000 105.1947 26.5893 -17.5813 0.0000 0.0000 44.1894 0.0000 0.0000 0.0000 11.6569 2.2575 385.8007 0.0000 33.1001 0.0000 -17.8212 -37.8287 -19.4858 0.0000 0.0000 0.0000 345.1123 -22.8523 -0.8190 -0.0477 27.6015 0.0993 13.6951 -36.2210 15.0323 0.0000 0.0000 0.0000
0.4476 0.8216 2.1240 -365.8773 -0.3031 6.4151 -1.5133 0.0035 -4.3150 -1.5133 0.0035 -4.3150 -1.5133 0.0035 -4.3150 9.1665 0.9092 -1.2786 13.7577 1.2842 -1.9684 0.0000 0.0000 0.0000 -65.9837 46.9365 6.4854 0.0000 0.0000 -56.0687 0.0000 0.0000 0.0000 0.0000 0.0000 0.0000 104.7187 27.5882 -17.4765 0.0000 0.0000 43.1271 0.0000 0.0000 0.0000 11.5893 2.4143 381.7373 0.0000 35.5674 0.0000 -17.5153 -51.0223 -18.6841 0.0000 0.0000 0.0000 346.9785 -21.6570 0.1408 -0.6697 21.4368 1.1630 11.2323 -37.5418 12.3003 0.0000 0.0000 0.0000
0.4558 0.8184 2.1416 -365.5911 -0.1113 5.1819 -1.6044 0.0856 -4.3593 -1.6044 0.0856 -4.3593 -1.6044 0.0856 -4.3593 8.9590 0.7936 -0.8444 13.4433 1.1386 -1.3106 0.0000 0.0000 0.0000 -60.8334 45.8001 1.6872 0.0000 0.0000 -56.1011 -0.0000 0.0000 0.0000 0.0000 0.0000 0.0000 104.1013 28.4784 -17.1087 0.0000 0.0000 42.3452 0.0000 0.0000 0.0000 11.6434 2.3623 378.7161 0.0000 37.1787 0.0000 -11.5235 -56.6621 -12.1772 0.0000 0.0000 0.0000 350.0321 -21.5998 0.2217 -2.0788 16.0688 1.9347 11.6203 -35.0553 12.7887 0.0000 0.0000 0.0000
0.4610 0.8155 2.1634 -365.2935 0.1992 4.2768 -1.7182 0.1957 -4.4914 -1.7182 0.1957 -4.4914 -1.7182 0.1957 -4.4914 8.8942 0.6304 -0.4986 13.3437 0.9147 -0.7831 0.0000 0.0000 0.0000 -55.2642 45.5203 -2.7819 0.0000 0.0000 -55.8841 0.0000 0.0000 0.0000 0.0000 0.0000 0.0000 103.9999 29.6066 -17.0385 0.0000 0.0000 40.6966 0.0000 0.0000 0.0000 11.4877 2.3206 377.9544 0.0000 38.4603 0.0000 -5.9998 -59.1358 -6.3145 0.0000 0.0000 0.0000 353.1171 -21.8355 0.0765 -4.6853 12.2218 1.8180 15.1497 -30.5890 16.8198 0.0000 0.0000 0.0000
0.4620 0.8132 2.1938 -365.0511 0.5314 2.9775 -1.8100 0.3798 -4.5820 -1.8100 0.3798 -4.5820 -1.8100 0.3798 -4.5820 8.9552 0.2748 -0.1344 13.4331 0.4035 -0.2173 0.0000 0.0000 0.0000 -52.5229 42.9486 -2.8342 0.0000 0.0000 -57.5848 0.0000 0.0000 0.0000 0.0000 0.0000 0.0000 103.8240 29.7351 -16.9794 0.0479 1.9091 36.9746 0.0000 -0.0000 -0.0000 11.4003 2.7242 377.5000 0.0000 38.3461 0.0000 -0.0523 -59.0620 -0.0551 0.0000 0.0000 0.0000 355.8592 -22.6576 -0.1434 -5.6114 10.4495 1.1836 15.8325 -24.0241 17.8305 0.0000 0.0000 0.0000
0.4576 0.8107 2.2269 -364.8231 0.6723 2.2717 -1.8859 0.4118 -4.4835 -1.8859 0.4118 -4.4835 -1.8859 0.4118 -4.4835 9.0009 0.2306 -0.0707 13.5014 0.3411 -0.1194 0.0000 0.0000 0.0000 -53.6933 40.3107 -1.0025 0.0000 0.0000 -59.2340 0.0000 0.0000 0.0000 0.0000 0.0000 0.0000 103.1825 28.9217 -17.8431 0.1416 3.2868 35.9762 0.0000 0.0000 0.0000 11.4351 3.4342 377.2719 0.0000 38.1273 0.0000 0.6497 -58.9394 0.6841 0.0000 0.0000 0.0000 357.4481 -23.1387 3.1723 -6.0317 13.3050 3.9052 11.7598 -21.4681 13.3331 0.0000 0.0000 0.0000
0.4554 0.8069 2.2496 -364.6254 0.6967 1.7441 -1.9638 0.4044 -4.3134 -1.9638 0.4044 -4.3134 -1.9638 0.4044 -4.3134 9.0306 0.2782 -0.0667 13.5462 0.4125 -0.1162 0.0000 0.0000 0.0000 -55.3285 38.4993 0.6680 0.0000 0.0000 -60.7666 0.0000 0.0000 0.0000 0.0000 0.0000 0.0000 103.5959 29.8314 -19.4207 0.1139 3.0173 36.2478 0.0000 0.0000 0.0000 11.6194 4.7751 377.6919 0.0000 38.1632 0.0000 -3.2370 -58.6884 -3.4097 0.0000 0.0000 0.0000 358.3749 -23.1776 8.3996 -5.6440 16.7231 6.7235 7.1758 -8.9698 8.4073 0.0000 0.0000 0.0000
0.4535 0.8071 2.2672 -364.4505 0.7639 1.3939 -2.0544 0.3857 -4.1366 -2.0544 0.3857 -4.1366 -2.0544 0.3857 -4.1366 9.0355 0.3546 -0.0401 13.5535 0.5284 -0.0810 0.0000 0.0000 0.0000 -56.6866 37.9795 1.3984 0.0000 0.0000 -61.0626 0.0000 -0.0000 0.0000 0.0000 0.0000 0.0000 104.1229 29.9208 -20.1754 0.2188 4.2192 35.5586 0.0000 0.0000 0.0000 11.8528 5.7039 378.4812 0.0000 38.7271 0.0000 -10.0042 -56.3848 -10.5778 0.0000 0.0000 0.0000 358.9094 -23.2008 12.7245 -4.7718 19.3452 7.3821 5.1884 -6.7958 6.1182 0.0000 0.0000 0.0000
0.4509 0.8097 2.2886 -364.2776 0.8443 1.1222 -2.1468 0.3923 -3.9480 -2.1468 0.3923 -3.9480 -2.1468 0.3923 -3.9480 9.0151 0.3230 0.0564 13.5226 0.4868 0.0654 0.0000 0.0000 0.0000 -57.9026 38.1326 2.1270 0.0000 -0.0000 -60.9282 0.0000 0.0000 0.0000 0.0000 0.0000 0.0000 103.6780 29.6223 -20.1395 0.2962 4.8865 35.1718 0.0000 0.0000 0.0000 12.1262 5.8029 379.1760 0.0000 40.7270 0.0000 -12.2832 -52.3747 -13.0782 0.0000 0.0000 0.0000 359.2604 -23.1774 15.0695 -3.9625 20.9619 6.8497 4.1620 -5.5885 4.9258 0.0000 0.0000 0.0000
0.4469 0.8156 2.3176 -364.1358 1.0788 0.8172 -2.2748 0.3637 -3.7032 -2.2748 0.3637 -3.7032 -2.2748 0.3637 -3.7032 9.0152 0.4108 0.2597 13.5224 0.6302 0.3645 0.0000 0.0000 0.0000 -58.5675 39.0193 2.4158 0.0000 0.0000 -60.1057 0.0000 0.0000 0.0000 0.0000 0.0000 0.0000 103.5751 29.9766 -19.9357 0.3984 5.6633 34.7682 0.0000 0.0000 0.0000 12.2772 4.7885 378.8443 0.0000 44.4370 0.0000 -12.4000 -50.2862 -13.2523 0.0000 0.0000 0.0000 359.6641 -22.1602 16.7323 -3.3991 22.0377 6.2320 3.9406 -6.0987 4.6567 0.0000 0.0000 0.0000
0.4372 0.8246 2.3515 -363.9921 1.5154 0.5327 -2.3958 0.3224 -3.3024 -2.3958 0.3224 -3.3024 -2.3958 0.3224 -3.3024 8.9079 0.3740 0.6023 13.3605 0.5949 0.8798 0.0000 0.0000 0.0000 -59.6930 40.9664 2.6433 0.0000 0.0000 -58.5500 0.0000 0.0000 0.0000 0.0000 0.0000 0.0000 102.3843 26.0657 -18.4565 0.9105 8.0755 33.2352 -0.0000 0.0000 0.0000 12.3936 1.4562 379.0567 0.0000 50.0554 -0.0000 -14.0844 -50.0380 -15.0568 0.0000 0.0000 0.0000 360.4661 -21.1707 18.8993 -2.7160 23.3237 5.2643 3.4649 -7.6549 4.0762 0.0000 0.0000 0.0000
0.4283 0.8342 2.3907 -363.8175 1.9281 -0.0637 -2.4422 0.3064 -2.8804 -2.4422 0.3064 -2.8804 -2.4422 0.3064 -2.8804 8.6193 0.3522 0.6673 12.9275 0.5649 0.9793 0.0000 0.0000 0.0000 -61.5629 42.9235 3.6403 0.0000 0.0000 -57.0942 0.0000 -0.0000 0.0000 0.0000 0.0000 0.0000 101.7982 24.8156 -16.6684 1.3063 9.2894 32.3520 -0.0000 0.0000 0.0000 12.2765 -2.1075 380.4259 0.0000 56.1508 0.0000 -24.9521 -45.8827 -26.8332 0.0000 0.0000 0.0000 362.5148 -19.0259 23.2881 -2.7314 23.9269 5.4130 0.3205 -9.4209 0.3752 0.0000 0.0000 0.0000
0.4247 0.8471 2.4377 -363.5556 2.5550 -1.1069 -2.5178 0.2412 -2.3512 -2.5178 0.2412 -2.3512 -2.5178 0.2412 -2.3512 8.3746 0.3237 0.8691 12.5599 0.5323 1.2837 0.0000 0.0000 0.0000 -65.5983 45.3979 6.3935 0.0000 0.0000 -55.6267 0.0000 0.0000 0.0000 0.0000 0.0000 0.0000 102.3673 26.6696 -14.6437 0.7879 7.2572 33.3882 0.0000 0.0000 0.0000 12.1039 -7.5342 381.7085 0.0000 62.2484 0.0000 -22.8860 -39.1128 -24.9360 0.0000 0.0000 0.0000 363.3479 -13.9649 20.5781 -6.7599 19.1260 10.8563 -1.1522 -9.5164 -1.3485 0.0000 0.0000 0.0000
0.4234 0.8584 2.4783 -363.3510 2.8259 -2.5967 -2.6053 0.1525 -1.6972 -2.6053 0.1525 -1.6972 -2.6053 0.1525 -1.6972 8.1311 0.5574 0.7906 12.1940 0.8767 1.1544 0.0000 0.0000 0.0000 -73.3937 46.8400 13.7238 0.0000 -0.0000 -55.6126 0.0000 0.0000 0.0000 0.0000 0.0000 0.0000 104.0168 30.7567 -13.4571 0.0721 2.2836 36.5855 0.0000 0.0000 0.0000 12.0192 -15.7339 383.8630 0.0000 71.9957 0.0000 -20.1977 -20.9091 -22.8850 0.0000 0.0000 0.0000 363.8147 -6.9393 12.7404 -11.2537 11.6084 10.8644 4.3149 -9.7520 5.0459 0.0000 0.0000 0.0000
0.4238 0.8618 2.5023 -363.1520 2.9970 -3.9535 -2.6600 0.0741 -1.0481 -2.6600 0.0741 -1.0481 -2.6600 0.0741 -1.0481 7.8377 1.0823 0.7498 11.7524 1.6593 1.0677 0.0000 0.0000 0.0000 -78.7112 44.7206 18.0422 0.0000 0.0000 -54.4498 0.0000 0.0000 0.0000 0.0000 0.0000 0.0000 104.4487 30.9186 -11.8251 0.0011 0.2763 38.8275 0.0000 0.0000 0.0000 12.0843 -22.6874 386.8860 0.0000 77.2022 -0.0000 -13.0521 -8.9265 -15.2767 0.0000 0.0000 0.0000 363.6297 -4.3978 10.9792 -12.0556 9.5251 9.9546 7.7354 -10.2026 9.0312 0.0000 0.0000 0.0000
0.4232 0.8584 2.5240 -362.9512 2.9186 -5.4310 -2.6902 0.0212 -0.3767 -2.6902 0.0212 -0.3767 -2.6902 0.0212 -0.3767 7.6343 1.5158 0.5480 11.4483 2.2976 0.7452 0.0000 0.0000 0.0000 -82.5961 43.8060 21.4817 0.0000 0.0000 -53.6155 0.0000 -0.0000 0.0000 0.0000 0.0000 0.0000 105.4494 31.2623 -11.2164 0.0005 0.1933 39.0205 0.0000 0.0000 0.0000 12.5122 -27.9912 391.6220 0.0000 79.5202 -0.0000 -18.0254 -13.6246 -20.8050 0.0000 0.0000 0.0000 363.0060 -3.1170 9.3218 -11.9406 8.9254 8.7991 9.7826 -10.4272 11.4106 0.0000 0.0000 0.0000
0.4248 0.8549 2.5554 -362.7144 2.8093 -7.0163 -2.6991 -0.0125 0.2758 -2.6991 -0.0125 0.2758 -2.6991 -0.0125 0.2758 7.5656 1.5546 0.3456 11.3474 2.3456 0.4408 0.0000 0.0000 0.0000 -84.9706 42.8661 24.2727 -0.0000 0.0000 -54.5492 0.0000 0.0000 0.0000 0.0000 0.0000 0.0000 106.0666 32.0791 -11.0941 0.0004 0.1682 39.0945 0.0000 0.0000 0.0000 13.1769 -30.7876 395.9973 0.0000 77.5535 -0.0000 -19.0485 -18.9245 -21.6916 0.0000 0.0000 0.0000 362.1032 -1.9633 6.8513 -11.3000 8.7313 6.8898 12.7169 -10.2898 14.8297 0.0000 0.0000 0.0000
0.4307 0.8508 2.6006 -362.4604 2.5846 -8.6012 -2.6557 -0.0345 0.9141 -2.6557 -0.0345 0.9141 -2.6557 -0.0345 0.9141 7.6621 1.4676 0.0816 11.4946 2.2023 0.0487 0.0000 0.0000 0.0000 -87.3054 41.9050 28.2058 0.0000 0.0000 -55.6666 0.0000 0.0000 0.0000 0.0000 0.0000 0.0000 106.3187 33.3472 -11.1143 0.0001 0.0630 39.4555 0.0000 -0.0000 0.0000 14.1199 -34.4918 400.6416 0.0000 74.7274 -0.0000 -21.5849 -20.3418 -24.4788 0.0000 0.0000 0.0000 360.6247 0.8775 4.2581 -10.9035 7.6498 4.6854 15.1068 -10.9759 17.5733 0.0000 0.0000 0.0000
0.4391 0.8458 2.6506 -362.2473 2.2447 -10.3964 -2.6333 -0.0332 1.5871 -2.6333 -0.0332 1.5871 -2.6333 -0.0332 1.5871 7.7796 0.7172 -0.3085 11.6713 1.0585 -0.4985 0.0000 0.0000 0.0000 -88.3268 40.1680 31.2809 0.0000 -0.0000 -56.8801 0.0000 -0.0000 0.0000 0.0000 0.0000 0.0000 106.5737 32.9560 -10.9881 0.0002 0.1053 39.2914 0.0000 0.0000 0.0000 14.7246 -35.8563 404.7818 0.0000 68.8962 -0.0000 -21.1048 -21.3514 -23.8817 0.0000 0.0000 0.0000 358.5319 3.1167 4.1132 -9.7814 9.3647 4.5440 15.6042 -14.7148 17.9725 0.0000 0.0000 0.0000
0.4448 0.8378 2.6996 -362.1115 1.8290 -11.6947 -2.5982 -0.0175 2.1231 -2.5982 -0.0175 2.1231 -2.5982 -0.0175 2.1231 7.9048 -0.1389 -0.6728 11.8565 -0.2428 -1.0004 0.0000 0.0000 0.0000 -88.8461 37.7135 34.1486 0.0000 -0.0000 -58.2662 0.0000 -0.0000 0.0000 0.0000 0.0000 0.0000 106.7302 31.9173 -10.7534 -0.0000 -0.0000 41.8665 0.0000 0.0000 0.0000 14.3400 -34.0792 408.3026 0.0000 60.2826 0.0000 -22.7302 -20.9108 -25.7341 0.0000 0.0000 0.0000 356.0391 6.9920 1.2114 -8.8078 7.6715 1.5421 19.4912 -14.9662 22.4098 0.0000 0.0000 0.0000
0.4464 0.8301 2.7417 -361.9840 1.5163 -12.6949 -2.5954 0.0125 2.5545 -2.5954 0.0125 2.5545 -2.5954 0.0125 2.5545 7.9768 -0.7816 -0.9873 11.9605 -1.2220 -1.4379 0.0000 0.0000 0.0000 -87.6292 35.8011 34.8777 0.0000 0.0000 -58.8419 0.0000 0.0000 0.0000 0.0000 0.0000 0.0000 106.8009 30.5084 -10.1200 0.0000 0.0000 48.4007 0.0000 0.0000 0.0000 13.6425 -31.4700 409.6729 0.0000 51.7339 0.0000 -25.7647 -21.1207 -29.1247 0.0000 0.0000 0.0000 354.3011 11.2282 0.5607 -7.9503 5.6291 0.3915 21.3389 -16.6324 24.4178 0.0000 0.0000 0.0000
0.4481 0.8193 2.7707 -361.9612 1.2313 -13.3655 -2.5273 0.0667 2.9226 -2.5273 0.0667 2.9226 -2.5273 0.0667 2.9226 8.0377 -1.3662 -1.3740 12.0458 -2.1180 -1.9862 0.0000 0.0000 0.0000 -86.3751 34.9681 35.0944 0.0000 0.0000 -58.8569 0.0000 0.0000 0.0000 0.0000 0.0000 0.0000 105.6524 30.7881 -7.9515 0.0000 0.0000 53.4934 0.0000 0.0000 0.0000 12.7553 -28.7480 409.7112 0.0000 43.9914 0.0000 -25.7012 -23.3849 -28.9055 0.0000 0.0000 0.0000 353.3031 13.0072 0.7748 -7.7641 6.5869 0.4580 23.1153 -19.6647 26.2429 0.0000 0.0000 0.0000
0.4526 0.8110 2.7920 -362.0458 0.9463 -14.1363 -2.4639 0.1457 3.2476 -2.4639 0.1457 3.2476 -2.4639 0.1457 3.2476 8.2685 -1.8970 -1.7419 12.3844 -2.9345 -2.5065 0.0000 0.0000 0.0000 -85.5212 35.1238 35.0841 0.0000 0.0000 -58.6504 0.0000 0.0000 0.0000 0.0000 0.0000 0.0000 103.1919 29.2742 -5.0052 0.0000 0.0000 56.9226 0.0000 0.0000 0.0000 12.0023 -26.0720 411.1467 0.0000 35.6223 0.0000 -24.3729 -24.6368 -27.3477 0.0000 -0.0000 0.0000 352.4627 13.7001 1.3223 -7.6550 8.1344 0.9567 23.7533 -23.7544 26.7102 0.0000 0.0000 0.0000
0.4581 0.8059 2.8141 -362.1582 0.8620 -14.7020 -2.4097 0.2037 3.4834 -2.4097 0.2037 3.4834 -2.4097 0.2037 3.4834 8.3542 -2.5336 -2.0844 12.5029 -3.9072 -2.9843 0.0000 0.0000 0.0000 -85.5381 35.6935 35.3816 0.0000 0.0000 -58.7573 0.0000 0.0000 0.0000 0.0000 0.0000 0.0000 100.7687 28.4177 -2.0820 0.0000 0.0000 58.7018 0.0000 0.0000 0.0000 11.2666 -23.4870 410.7907 -0.6211 28.1720 1.2883 -22.6958 -23.9759 -25.5168 0.0000 0.0000 0.0000 351.3772 14.2038 2.4329 -7.5640 9.6451 1.9486 23.4657 -29.2735 26.0751 0.0000 0.0000 0.0000
0.4481 0.8143 2.8469 -362.2833 0.9237 -15.1212 -2.3435 0.2148 3.6980 -2.3435 0.2148 3.6980 -2.3435 0.2148 3.6980 8.5058 -3.2163 -2.3755 12.7191 -4.9472 -3.3807 0.0000 0.0000 0.0000 -86.0015 36.0126 36.2675 0.0000 0.0000 -59.2594 0.0000 0.0000 0.0000 0.0000 0.0000 0.0000 99.5402 28.8543 0.1767 0.0000 0.0000 59.9534 0.0000 0.0000 0.0000 10.0647 -21.6431 400.3333 -5.1055 23.1926 10.0360 -21.4018 -22.3090 -24.1624 0.0000 0.0000 0.0000 350.2054 16.1718 2.0663 -7.4400 8.8285 1.2354 29.3070 -36.4387 32.0444 0.0000 0.0000 0.0000
0.4396 0.8187 2.8808 -362.3994 0.9723 -15.4473 -2.2838 0.2133 3.8328 -2.2838 0.2133 3.8328 -2.2838 0.2133 3.8328 8.6137 -3.6262 -2.5558 12.8736 -5.5722 -3.6261 0.0000 0.0000 0.0000 -86.4290 36.0802 36.9335 0.0000 0.0000 -59.2474 0.0000 0.0000 0.0000 0.0000 0.0000 0.0000 99.3446 30.1071 1.2711 0.0000 0.0000 60.0043 0.0000 0.0000 0.0000 9.7146 -20.6090 398.0967 -4.9502 23.1450 9.6985 -18.5434 -22.4377 -20.9459 0.0000 0.0000 0.0000 350.1100 17.1627 2.7281 -7.2939 9.7671 1.8158 31.3156 -40.6317 33.9505 0.0000 0.0000 0.0000
0.4340 0.8204 2.9156 -362.5149 1.0499 -15.3707 -2.2392 0.2068 3.8249 -2.2392 0.2068 3.8249 -2.2392 0.2068 3.8249 8.6574 -3.6997 -2.6671 12.9357 -5.6891 -3.7879 0.0000 0.0000 0.0000 -86.8537 35.6961 37.6342 0.0000 -0.0000 -59.3119 0.0000 0.0000 0.0000 0.0000 0.0000 0.0000 99.7112 30.5720 1.1980 0.0000 0.0000 59.5103 0.0000 0.0000 0.0000 9.5012 -19.9683 398.5239 -3.8238 24.1995 7.6875 -16.0178 -19.4761 -18.2309 0.0000 0.0000 0.0000 351.0186 16.9644 6.8044 -7.0889 13.4655 5.3886 26.8090 -44.8548 28.8728 0.0000 0.0000 0.0000
0.4327 0.8224 2.9351 -362.5974 1.2519 -14.9305 -2.2034 0.1679 3.6756 -2.2034 0.1679 3.6756 -2.2034 0.1679 3.6756 8.7832 -3.5748 -2.7061 13.1247 -5.5062 -3.8500 0.0000 0.0000 0.0000 -86.7350 36.0787 37.6160 0.0000 0.0000 -59.1239 0.0000 0.0000 0.0000 0.0000 0.0000 0.0000 100.0899 30.3072 1.0957 0.0000 0.0000 58.0869 0.0000 0.0000 0.0000 9.6954 -19.5016 401.6394 -3.0145 25.1683 6.1791 -11.5823 -8.7347 -13.5683 0.0000 0.0000 0.0000 353.1765 16.3154 13.0420 -6.4410 17.2197 8.4862 18.3981 -43.4646 19.8974 0.0000 0.0000 0.0000
0.4307 0.8344 2.9664 -362.7006 1.5318 -13.8956 -2.2079 0.1211 3.3215 -2.2079 0.1211 3.3215 -2.2079 0.1211 3.3215 8.9647 -3.0116 -2.6771 13.4034 -4.6644 -3.8340 0.0000 0.0000 0.0000 -86.1449 36.0491 36.7083 0.0000 0.0000 -58.0885 0.0000 0.0000 0.0000 0.0000 0.0000 0.0000 100.4301 30.4970 0.6313 0.0000 0.0000 57.4006 0.0000 0.0000 0.0000 9.8261 -18.6736 404.7024 -1.2656 27.1498 2.6383 -10.6762 -8.3290 -12.5235 0.0000 0.0000 0.0000 354.6481 15.8950 14.7275 -5.1412 19.2547 7.9632 16.5384 -34.7868 18.1978 0.0000 0.0000 0.0000
0.4314 0.8418 3.0091 -362.8458 1.8930 -12.9967 -2.1785 0.0677 2.9312 -2.1785 0.0677 2.9312 -2.1785 0.0677 2.9312 9.0648 -2.5525 -2.6069 13.5599 -3.9747 -3.7531 0.0000 0.0000 0.0000 -85.9609 36.5657 35.9495 0.0000 0.0000 -57.3314 0.0000 0.0000 -0.0000 0.0000 0.0000 0.0000 101.1386 30.2776 -0.5145 0.0000 0.0000 56.3789 0.0000 0.0000 0.0000 9.6658 -17.3933 405.3388 -0.1755 29.0055 0.3596 -10.8372 -9.7536 -12.6615 0.0000 0.0000 0.0000 355.9023 15.1685 17.7588 -4.2496 21.1156 7.4520 12.3978 -27.0055 13.8783 0.0000 0.0000 0.0000
0.4325 0.8470 3.0563 -363.0649 2.2409 -11.7691 -2.1494 0.0165 2.4375 -2.1494 0.0165 2.4375 -2.1494 0.0165 2.4375 9.0794 -2.1768 -2.4049 13.5891 -3.4007 -3.4721 0.0000 0.0000 0.0000 -86.3104 37.0511 35.2892 0.0000 0.0000 -56.9322 0.0000 0.0000 0.0000 0.0000 0.0000 0.0000 103.0419 27.1793 -3.5504 0.0000 0.0000 56.1079 0.0000 0.0000 0.0000 9.5073 -15.9440 403.3053 0.0000 32.5084 0.0000 -11.7066 -13.6844 -13.5314 0.0000 0.0000 0.0000 357.1694 13.5782 21.5089 -2.7359 23.6810 5.3761 10.6302 -21.1964 12.0623 0.0000 0.0000 0.0000
0.4298 0.8484 3.1021 -363.2238 2.5988 -10.3772 -2.1277 -0.0185 1.9027 -2.1277 -0.0185 1.9027 -2.1277 -0.0185 1.9027 9.0834 -1.5984 -2.1965 13.6039 -2.5227 -3.1937 0.0000 0.0000 0.0000 -85.8022 37.9389 33.0974 0.0000 0.0000 -56.0159 0.0000 0.0000 0.0000 0.0000 0.0000 0.0000 103.0556 28.4184 -4.5418 0.0000 0.0000 51.6741 0.0000 0.0000 0.0000 9.2695 -14.3292 401.2359 0.0000 34.3664 0.0000 -12.1359 -17.2165 -13.9008 0.0000 0.0000 0.0000 358.9434 5.2571 20.8811 0.0000 35.6001 0.0000 14.8387 -19.9153 16.8758 0.0000 0.0000 0.0000
0.4229 0.8502 3.1339 -363.4269 2.8524 -8.9145 -2.1385 -0.0266 1.3968 -2.1385 -0.0266 1.3968 -2.1385 -0.0266 1.3968 9.1935 -0.9947 -1.9460 13.7777 -1.6057 -2.8533 0.0000 0.0000 0.0000 -84.9451 38.5286 30.6439 -0.0000 0.0000 -56.3793 -0.0000 0.0000 -0.0000 0.0000 0.0000 0.0000 103.7961 30.6938 -6.3388 -0.0000 -0.0000 44.2591 0.0000 0.0000 0.0000 9.0432 -11.2450 400.5596 0.0000 33.7229 0.0000 -13.0432 -19.4800 -14.8549 0.0000 0.0000 0.0000 360.4506 -2.1225 18.1818 0.0000 44.8088 0.0000 18.7862 -15.7015 21.5642 0.0000 0.0000 0.0000
0.4115 0.8538 3.1549 -363.6983 3.1218 -6.6596 -2.1944 -0.0085 0.6667 -2.1944 -0.0085 0.6667 -2.1944 -0.0085 0.6667 9.4232 -0.1638 -1.6312 14.1322 -0.3456 -2.4312 0.0000 0.0000 0.0000 -82.5995 41.7287 25.2405 0.0000 0.0000 -54.0400 0.0000 0.0000 0.0000 0.0000 0.0000 0.0000 104.0658 27.8037 -7.5108 0.0805 2.1708 36.2853 0.0000 0.0000 0.0000 8.9557 -8.1488 403.4180 -0.1577 29.0469 0.3228 -14.8545 -16.6966 -17.0268 0.0000 0.0000 0.0000 361.1984 -11.6479 15.1942 0.0000 53.3270 0.0000 21.3219 -2.2079 25.3765 0.0000 0.0000 0.0000
0.4005 0.8563 3.1765 -364.0333 3.1979 -4.3783 -2.2147 0.0013 -0.2033 -2.2147 0.0013 -0.2033 -2.2147 0.0013 -0.2033 9.4673 0.8767 -1.4083 14.2091 1.2248 -2.1621 0.0000 0.0000 0.0000 -80.4438 42.7683 22.6090 -0.0000 0.0000 -53.8627 -0.0000 -0.0000 0.0000 0.0000 0.0000 0.0000 103.6386 22.9380 -8.0591 0.6552 5.7954 33.2761 0.0000 0.0000 0.0000 9.1499 -4.5812 398.0644 -3.8683 24.2250 7.7847 -15.6604 -14.8681 -18.0299 0.0000 0.0000 -0.0000 361.2305 -19.7647 12.9517 0.0000 61.4837 0.0000 20.9860 -0.7360 25.0940 0.0000 0.0000 0.0000
0.3920 0.8604 3.2001 -364.4127 2.9699 -2.8170 -2.2746 0.0095 -1.0327 -2.2746 0.0095 -1.0327 -2.2746 0.0095 -1.0327 9.5199 1.4677 -1.1260 14.2927 2.1264 -1.7767 0.0000 0.0000 0.0000 -77.8209 42.2051 19.5136 0.0000 0.0000 -53.1441 0.0000 0.0000 0.0000 0.0000 0.0000 0.0000 104.3533 22.0624 -9.5788 0.7969 6.4726 32.9537 0.0000 0.0000 0.0000 9.6019 -2.3688 392.6379 -6.2457 21.5823 11.6238 -15.3344 -14.6524 -17.6657 0.0000 0.0000 0.0000 361.0299 -25.6452 13.4798 0.0000 64.3033 0.0000 19.4447 -8.1229 22.7652 0.0000 0.0000 0.0000
0.3835 0.8589 3.2285 -364.8805 2.1852 -2.2047 -2.2298 0.0216 -1.8915 -2.2298 0.0216 -1.8915 -2.2298 0.0216 -1.8915 9.7601 1.7112 -0.7462 14.6519 2.5129 -1.2261 0.0000 0.0000 0.0000 -75.1658 42.3211 16.4539 0.0000 -0.0000 -52.0163 0.0000 0.0000 0.0000 0.0000 0.0000 0.0000 105.7470 26.0048 -12.1848 0.1373 2.9758 35.8283 0.0000 0.0000 0.0000 10.2330 -0.4048 390.0984 -5.3942 22.0791 10.1520 -14.5668 -17.5147 -16.6644 0.0000 0.0000 0.0000 359.9441 -30.0609 16.0592 0.0000 66.9407 0.0000 18.7299 -11.7113 21.7216 0.0000 0.0000 0.0000
0.3732 0.8558 3.2567 -365.2713 1.2946 -2.0039 -2.1554 0.0104 -2.6594 -2.1554 0.0104 -2.6594 -2.1554 0.0104 -2.6594 10.0004 1.8349 -0.3018 15.0086 2.7256 -0.5716 0.0000 0.0000 0.0000 -72.6298 43.5435 12.5619 0.0000 -0.0000 -49.7476 0.0000 0.0000 0.0000 0.0000 0.0000 0.0000 107.8964 29.6170 -17.1641 0.0018 0.3679 38.7177 0.0000 0.0000 0.0000 10.8083 2.3126 387.5338 -5.5140 21.6662 10.1820 -13.7058 -19.9632 -15.5894 0.0000 0.0000 0.0000 358.6862 -30.4033 15.8927 0.0000 57.7610 0.0000 13.2896 -22.5542 15.0251 0.0000 0.0000 0.0000
0.3654 0.8478 3.2892 -365.6912 -0.1068 -2.6437 -2.1458 0.0080 -3.4465 -2.1458 0.0080 -3.4465 -2.1458 0.0080 -3.4465 10.3332 2.0175 0.1442 15.5036 3.0278 0.0794 0.0000 0.0000 0.0000 -70.7524 41.5584 10.7589 0.0000 0.0000 -50.0768 0.0000 0.0000 0.0000 0.0000 0.0000 0.0000 110.6208 31.7649 -22.9821 -0.0000 -0.0000 40.7957 -0.0000 0.0000 0.0000 11.3902 4.8178 385.6244 -3.9829 22.9533 7.6736 -11.7684 -24.0072 -13.2643 0.0000 0.0000 -0.0000 356.8331 -29.1163 15.3815 0.0000 47.8357 0.0000 13.8215 -28.0903 15.4315 0.0000 0.0000 0.0000
0.3631 0.8353 3.3168 -366.2480 -1.8293 -4.1926 -2.1889 0.0158 -3.9095 -2.1889 0.0158 -3.9095 -2.1889 0.0158 -3.9095 10.7347 2.2420 0.4300 16.1029 3.3833 0.4859 0.0000 0.0000 0.0000 -69.3390 40.4017 9.7299 0.0000 0.0000 -49.4266 0.0000 0.0000 0.0000 0.0000 0.0000 0.0000 113.3585 34.6769 -28.2364 0.0000 0.0000 40.1120 0.0000 0.0000 0.0000 11.7928 8.9764 386.8817 -3.1481 24.0393 6.2749 -12.1559 -28.2140 -13.5719 0.0000 0.0000 0.0000 356.1643 -26.6059 15.8258 0.0000 39.0355 0.0000 13.0736 -33.8901 14.4198 0.0000 0.0000 0.0000
0.3579 0.8127 3.3323 -366.8891 -3.7274 -7.3495 -2.2338 0.0371 -4.2261 -2.2338 0.0371 -4.2261 -2.2338 0.0371 -4.2261 10.9723 2.5629 1.0061 16.4512 3.9047 1.3214 0.0000 0.0000 0.0000 -66.7908 39.8582 8.0811 0.0000 0.0000 -48.2638 0.0000 0.0000 0.0000 0.0000 0.0000 0.0000 115.8015 38.4166 -32.3037 0.0003 0.1940 39.2314 0.0000 0.0000 0.0000 11.8619 11.9913 390.6409 -1.2513 26.6804 2.6049 -13.4194 -33.0894 -14.8250 0.0000 0.0000 0.0000 356.6879 -23.9814 14.9262 0.0000 31.8266 0.0000 14.7027 -35.2182 16.1687 0.0000 0.0000 0.0000
0.3499 0.7953 3.3484 -367.7433 -5.0923 -12.5263 -2.2003 0.0859 -3.9532 -2.2003 0.0859 -3.9532 -2.2003 0.0859 -3.9532 11.1817 2.2199 1.1410 16.7632 3.4025 1.5445 0.0000 0.0000 0.0000 -62.3921 39.7162 5.2542 0.0000 0.0000 -47.4578 0.0000 0.0000 0.0000 0.0000 0.0000 0.0000 116.6604 40.5262 -33.7549 0.0099 1.0717 38.1999 0.0000 0.0000 0.0000 11.4547 14.9882 392.9673 -0.2574 28.6257 0.5310 -12.9355 -39.8024 -14.0994 0.0000 0.0000 0.0000 359.5015 -22.3641 16.3839 -0.2772 27.8979 0.5762 17.8574 -35.4161 19.6194 0.0000 0.0000 0.0000
0.3369 0.7958 3.3749 -368.2773 -5.3326 -16.4064 -2.1046 0.1169 -3.6011 -2.1046 0.1169 -3.6011 -2.1046 0.1169 -3.6011 11.3199 1.2621 1.1969 16.9721 1.9755 1.6964 0.0000 0.0000 0.0000 -58.0518 39.3619 2.6846 0.0000 0.0000 -47.5466 -0.0000 0.0000 0.0000 0.0000 0.0000 0.0000 116.6526 41.5002 -34.3348 0.0148 1.3162 38.0112 0.0000 0.0000 0.0000 10.8961 16.8293 393.6859 0.0000 30.6972 0.0000 -12.9464 -53.6048 -13.7532 0.0000 0.0000 0.0000 362.0182 -20.8083 12.2875 -1.5695 23.7264 3.0743 19.7486 -33.2618 21.7839 0.0000 0.0000 0.0000
0.3261 0.8127 3.4011 -368.5653 -4.9987 -20.2729 -2.0326 0.1453 -3.1120 -2.0326 0.1453 -3.1120 -2.0326 0.1453 -3.1120 11.5210 0.5206 1.4681 17.2761 0.8886 2.1557 0.0000 0.0000 0.0000 -54.4740 38.5143 1.5598 0.0000 0.0000 -48.1283 0.0000 0.0000 0.0000 0.0000 0.0000 0.0000 115.3844 41.5902 -32.8387 0.1139 3.6333 36.5961 0.0000 0.0000 0.0000 9.9746 18.6996 394.5732 -0.0001 29.9771 0.0002 -7.7460 -58.2649 -8.1642 0.0000 0.0000 0.0000 365.0252 -19.5210 10.7514 -3.6533 19.5869 5.6396 23.9808 -29.5286 26.6292 0.0000 0.0000 0.0000
0.3164 0.8190 3.4314 -368.6991 -4.7095 -22.9184 -1.9539 0.1379 -2.6913 -1.9539 0.1379 -2.6913 -1.9539 0.1379 -2.6913 11.5160 0.3869 1.6266 17.2691 0.7007 2.4027 0.0000 0.0000 0.0000 -51.4751 38.2797 -0.3658 -0.0000 0.0000 -47.9737 0.0000 -0.0000 0.0000 0.0000 0.0000 0.0000 113.3260 40.2997 -31.2108 0.3554 6.2945 35.3392 0.0000 0.0000 0.0000 9.0329 20.6253 394.6268 -0.3823 28.3540 0.7913 -2.0182 -60.0429 -2.1209 0.0000 0.0000 0.0000 366.7492 -18.5400 9.6575 -4.4881 17.9372 5.9586 26.7448 -25.4123 29.9344 0.0000 0.0000 0.0000
0.3065 0.8225 3.4622 -368.8491 -4.4984 -24.8076 -1.9074 0.1273 -2.3781 -1.9074 0.1273 -2.3781 -1.9074 0.1273 -2.3781 11.5082 0.4702 1.9150 17.2553 0.8467 2.8276 0.0000 0.0000 0.0000 -51.5376 36.6404 0.8800 0.0000 0.0000 -48.9636 0.0000 0.0000 0.0000 0.0000 0.0000 0.0000 112.8304 39.8641 -31.2902 0.4578 7.1166 34.9966 0.0000 0.0000 0.0000 8.5571 21.4784 396.0004 -0.3720 28.4080 0.7696 -1.5313 -61.3485 -1.6056 0.0000 0.0000 0.0000 367.6881 -18.1462 13.2649 -4.0710 19.8692 6.4915 24.6387 -24.8318 27.6317 0.0000 0.0000 0.0000
0.2959 0.8225 3.4913 -368.9575 -4.2538 -26.3608 -1.9290 0.1002 -2.1133 -1.9290 0.1002 -2.1133 -1.9290 0.1002 -2.1133 11.5583 0.2547 2.2101 17.3318 0.5474 3.2848 0.0000 0.0000 0.0000 -50.2117 36.5273 1.3160 0.0000 0.0000 -49.9106 0.0000 0.0000 0.0000 0.0000 0.0000 0.0000 110.6454 36.8907 -29.7591 0.8534 9.4094 33.9472 0.0000 0.0000 0.0000 8.2484 21.7741 398.4488 -0.0498 29.4539 0.1010 -4.3311 -62.1023 -4.5351 0.0000 0.0000 0.0000 367.9923 -18.0722 16.2944 -3.7681 21.1464 6.5764 22.3362 -23.7955 25.1254 0.0000 0.0000 0.0000
0.2839 0.8217 3.5206 -368.8898 -3.6769 -27.7120 -1.9317 0.1107 -1.9146 -1.9317 0.1107 -1.9146 -1.9317 0.1107 -1.9146 11.6111 0.0167 2.4769 17.4137 0.2127 3.7013 0.0000 0.0000 0.0000 -50.9560 36.6883 2.7082 0.0000 -0.0000 -51.2906 0.0000 0.0000 0.0000 0.0000 0.0000 0.0000 109.1473 35.5557 -28.4958 1.2400 11.0702 33.1689 0.0000 0.0000 0.0000 8.1992 21.3105 399.2776 0.0000 31.9389 0.0000 -6.4336 -61.9154 -6.7385 0.0000 0.0000 0.0000 368.5742 -18.0129 19.5486 -3.5688 22.1250 6.5850 20.4125 -22.4924 23.0425 0.0000 0.0000 0.0000
0.2696 0.8235 3.5535 -368.7174 -3.0827 -28.3479 -1.9338 0.1187 -1.7351 -1.9338 0.1187 -1.7351 -1.9338 0.1187 -1.7351 11.6107 -0.3854 2.4968 17.4197 -0.3869 3.7616 0.0000 0.0000 0.0000 -52.4767 36.3503 3.5468 0.0000 0.0000 -51.5463 0.0000 0.0000 0.0000 0.0000 0.0000 0.0000 107.3999 33.8314 -26.9194 1.4988 11.8300 32.6668 0.0000 0.0000 0.0000 8.5717 20.3393 399.2296 0.0000 35.2842 -0.0000 -11.8551 -60.7096 -12.4397 0.0000 0.0000 -0.0000 368.8919 -17.6050 21.1490 -3.7446 22.2261 6.9582 17.9090 -21.0097 20.2998 0.0000 0.0000 0.0000
0.2549 0.8308 3.5915 -368.5019 -2.4632 -29.0670 -1.9706 0.1327 -1.5461 -1.9706 0.1327 -1.5461 -1.9706 0.1327 -1.5461 11.5637 -1.0068 2.8339 17.3617 -1.2908 4.3126 0.0000 0.0000 0.0000 -53.6584 36.1766 5.2740 0.0000 0.0000 -52.4077 0.0000 0.0000 0.0000 0.0000 0.0000 0.0000 106.5724 34.1552 -26.0307 1.3737 11.2680 32.8409 0.0000 0.0000 0.0000 9.4061 18.8432 399.5460 0.0000 39.8025 0.0000 -14.5075 -58.0409 -15.2901 0.0000 0.0000 0.0000 368.5675 -16.0328 20.1700 -4.8445 20.8454 8.4271 16.3684 -19.7055 18.6182 0.0000 0.0000 0.0000
0.2397 0.8348 3.6294 -368.2396 -1.8803 -29.4896 -2.0523 0.1303 -1.2526 -2.0523 0.1303 -1.2526 -2.0523 0.1303 -1.2526 11.5633 -1.7276 2.8507 17.3773 -2.3668 4.3929 0.0000 0.0000 0.0000 -55.3360 38.1232 7.4108 0.0000 0.0000 -53.3702 0.0000 0.0000 0.0000 0.0000 0.0000 0.0000 107.1838 34.5030 -25.7753 1.0751 10.0361 33.3638 0.0000 0.0000 0.0000 11.0542 15.5722 399.7382 -0.0000 46.9300 0.0000 -24.7384 -55.7642 -26.1448 0.0000 0.0000 0.0000 367.6070 -13.9666 20.0831 -5.8397 19.8432 9.6631 14.6426 -20.0979 16.6462 0.0000 0.0000 0.0000
0.2245 0.8415 3.6764 -367.9918 -1.3964 -29.1834 -2.1734 0.0844 -0.7027 -2.1734 0.0844 -0.7027 -2.1734 0.0844 -0.7027 11.5172 -1.9745 2.7953 17.3136 -2.7410 4.3286 0.0000 0.0000 0.0000 -59.5745 36.5885 11.0713 0.0000 0.0000 -55.1744 0.0000 0.0000 0.0000 0.0000 0.0000 0.0000 108.0826 34.2801 -25.8656 0.7839 8.6286 33.9587 0.0000 0.0000 0.0000 13.0031 11.1265 401.5862 0.0000 54.7329 0.0000 -42.6126 -47.3235 -45.5005 0.0000 0.0000 0.0000 366.4256 -11.6990 20.6095 -6.6197 19.2213 10.6658 13.1028 -20.5596 14.8841 0.0000 0.0000 0.0000
0.2146 0.8524 3.7213 -368.0989 -1.6828 -28.2122 -2.3164 0.0015 -0.0124 -2.3164 0.0015 -0.0124 -2.3164 0.0015 -0.0124 11.4894 -1.6777 2.6988 17.2641 -2.3052 4.1615 0.0000 0.0000 0.0000 -66.4514 34.7595 17.4787 0.0000 0.0000 -56.6585 0.0000 0.0000 0.0000 0.0000 0.0000 0.0000 107.0146 32.0070 -25.1984 0.7011 8.0036 34.0871 0.0000 0.0000 0.0000 14.7878 7.2300 403.3682 0.0000 60.8293 0.0000 -45.2620 -38.9966 -48.9783 0.0000 0.0000 0.0000 364.3948 -6.9848 15.1192 -9.2149 15.1057 11.2313 15.1155 -18.8739 17.2326 0.0000 0.0000 0.0000
0.2074 0.8590 3.7435 -368.1100 -1.7078 -27.5101 -2.4372 -0.0607 0.5218 -2.4372 -0.0607 0.5218 -2.4372 -0.0607 0.5218 11.4214 -1.6130 3.0259 17.1632 -2.1853 4.6450 0.0000 0.0000 0.0000 -70.2609 31.8582 20.7980 0.0000 0.0000 -57.5667 0.0000 0.0000 0.0000 0.0000 0.0000 0.0000 104.4953 28.9582 -23.4436 0.3393 5.3695 35.0606 0.0000 0.0000 0.0000 17.6344 0.0930 403.8307 0.0000 68.4925 -0.0000 -38.7240 -32.2256 -42.5441 0.0000 0.0000 0.0000 363.0274 -3.2004 8.4266 -10.9687 10.1724 8.0565 19.8658 -12.8890 22.9592 0.0000 0.0000 0.0000
0.1946 0.8656 3.7684 -367.9082 -1.1934 -26.5538 -2.6730 -0.1208 1.2889 -2.6730 -0.1208 1.2889 -2.6730 -0.1208 1.2889 11.9422 -1.1434 3.7597 17.9363 -1.4153 5.7088 0.0000 0.0000 0.0000 -71.9921 32.5962 22.2277 0.0000 0.0000 -58.3315 0.0000 0.0000 0.0000 0.0000 0.0000 0.0000 104.8354 27.7878 -21.5563 0.0425 1.8551 37.1158 0.0000 0.0000 0.0000 19.7251 -7.2098 407.5452 0.0000 73.5226 0.0000 -32.5091 -29.8163 -35.9758 0.0000 0.0000 0.0000 362.4760 -1.5819 9.5618 -11.8781 9.2007 9.0066 17.5741 -14.6369 20.2344 0.0000 0.0000 0.0000
0.1787 0.8698 3.8051 -367.6808 -0.4691 -24.7055 -2.7727 -0.1119 1.9211 -2.7727 -0.1119 1.9211 -2.7727 -0.1119 1.9211 12.3312 -2.3576 2.4144 18.5394 -3.3278 3.7991 0.0000 0.0000 0.0000 -74.8074 36.0900 23.4561 0.0000 0.0000 -55.0715 0.0000 0.0000 0.0000 0.0000 0.0000 0.0000 105.9533 24.7419 -18.0395 0.0000 0.0000 41.3151 0.0000 0.0000 0.0000 18.5695 -10.2712 411.9044 -0.0000 69.5003 0.0000 -23.9428 -30.4216 -26.5378 0.0000 0.0000 0.0000 362.1475 -0.8777 6.7938 -11.3786 8.5602 6.8589 24.1879 -13.8239 27.8428 0.0000 0.0000 0.0000
0.1630 0.8654 3.8470 -367.7644 0.0662 -23.8184 -2.8168 -0.0541 1.4771 -2.8168 -0.0541 1.4771 -2.8168 -0.0541 1.4771 13.0138 -3.9504 2.0979 19.5981 -5.7210 3.4743 0.0000 0.0000 0.0000 -77.6560 33.5045 26.1702 0.0000 0.0000 -52.5628 0.0000 0.0000 0.0000 0.0000 0.0000 0.0000 106.4022 26.3012 -17.5137 0.0000 0.0000 43.1442 0.0000 0.0000 0.0000 17.3558 -11.1358 415.3672 0.0000 58.5178 -0.0000 -14.7432 -21.9018 -16.6890 0.0000 0.0000 0.0000 361.6591 0.5462 6.5357 -11.2083 8.7277 6.6664 26.1989 -3.3099 31.0032 0.0000 0.0000 0.0000
0.1431 0.8208 3.8881 -368.1239 0.2672 -17.2693 -2.9939 -0.0093 0.5011 -2.9939 -0.0093 0.5011 -2.9939 -0.0093 0.5011 14.1070 -5.7210 -0.0298 21.2210 -8.5406 0.4872 0.0000 0.0000 0.0000 -81.1157 34.6648 29.5059 0.0000 0.0000 -52.2395 0.0000 0.0000 0.0000 0.0000 0.0000 0.0000 107.5092 24.8466 -18.6061 0.0000 0.0000 45.0623 0.0000 0.0000 0.0000 11.8927 -3.4155 420.5611 0.0000 41.2916 0.0000 -29.1074 -26.5301 -32.4732 0.0000 0.0000 0.0000 359.6968 1.4015 6.4836 -11.3002 8.5162 6.6134 35.7770 -19.5375 40.4098 0.0000 0.0000 0.0000
0.1115 0.8213 3.9250 -368.2538 0.6602 -10.5203 -3.0036 0.0120 -0.6477 -3.0036 0.0120 -0.6477 -3.0036 0.0120 -0.6477 14.9399 -8.7209 -0.7668 22.5200 -13.0814 -0.2811 0.0000 0.0000 0.0000 -80.1501 38.6326 26.8957 0.0000 0.0000 -50.5211 0.0000 0.0000 0.0000 0.0000 0.0000 0.0000 107.7264 24.2358 -17.9545 0.0000 0.0000 45.2215 0.0000 0.0000 0.0000 9.5027 -6.1614 423.8123 0.0000 35.8325 -0.0000 -31.5418 -8.0712 -36.7219 0.0000 0.0000 0.0000 358.3100 6.6283 9.5067 -11.9119 9.0727 8.9221 42.3587 -30.9913 46.5732 0.0000 0.0000 0.0000
0.0944 0.8204 3.9562 -369.3074 2.3934 9.2601 -2.6391 -0.0262 -3.0071 -2.6391 -0.0262 -3.0071 -2.6391 -0.0262 -3.0071 15.5907 -9.8193 -0.9414 23.5301 -14.7330 -0.3862 0.0000 0.0000 0.0000 -78.5589 48.2445 20.4812 0.0000 0.0000 -49.4971 0.0000 0.0000 0.0000 0.0000 0.0000 0.0000 107.3018 13.8318 -16.9846 0.0000 0.0000 44.3097 0.0000 -0.0000 -0.0000 10.9693 0.8744 410.7711 -0.8059 27.9530 1.6748 -38.6455 -14.8746 -44.0481 0.0000 0.0000 0.0000 357.2870 7.4503 53.0810 -5.4141 23.9373 10.9295 -75.3185 -68.4788 -77.2813 0.0000 0.0000 0.0000
0.0907 0.8193 3.9938 -369.7562 2.2055 19.8700 -2.4163 0.0759 -4.5043 -2.4163 0.0759 -4.5043 -2.4163 0.0759 -4.5043 16.5883 -10.3547 0.0445 25.1269 -15.4167 1.2246 0.0000 0.0000 0.0000 -77.0958 57.6947 17.4032 0.0000 0.0000 -50.3392 0.0000 0.0000 0.0000 0.0000 0.0000 0.0000 107.8462 8.9795 -17.3084 0.0000 0.0000 46.1528 0.0000 0.0000 0.0000 14.2233 3.7249 402.6424 -3.7927 24.6659 7.7165 -45.2777 -11.6343 -51.7728 0.0000 0.0000 0.0000 366.6188 13.1681 42.4915 -1.5851 26.7812 3.3023 -22.9417 -70.7448 -23.6549 0.0000 0.0000 0.0000
0.0655 0.8177 4.0475 -368.9047 0.0737 23.7913 -2.1641 0.5674 -5.0942 -2.1641 0.5674 -5.0942 -2.1641 0.5674 -5.0942 15.9184 -9.5302 0.9616 24.1311 -14.1008 2.4616 0.0000 0.0000 0.0000 -82.2528 59.8150 22.3824 0.0000 -0.0000 -59.3466 0.0000 -0.0000 0.0000 0.0000 0.0000 0.0000 111.1685 11.0979 -19.4394 0.0000 0.0000 54.9608 0.0000 0.0000 0.0000 16.6034 7.8700 396.8972 -3.8967 24.2260 7.8435 -50.2762 -15.3562 -56.7975 0.0000 0.0000 0.0000 373.7055 18.0609 32.0231 -7.2425 20.8844 13.2523 -21.7689 -58.9130 -22.8923 0.0000 0.0000 0.0000
0.0314 0.8123 4.0862 -366.8693 -3.8352 25.0591 -2.9327 1.3324 -4.9191 -2.9327 1.3324 -4.9191 -2.9327 1.3324 -4.9191 19.9699 -7.5335 2.2027 30.2034 -10.8961 4.2798 0.0000 0.0000 0.0000 -66.0772 63.3700 19.5030 0.0000 0.0000 -73.3840 0.0000 0.0000 0.0000 0.0000 0.0000 0.0000 118.1652 13.6523 -21.1420 -0.0000 0.0000 78.2920 0.0000 0.0000 0.0000 17.9625 13.0808 390.4103 -3.6936 23.9488 7.3645 -48.1057 -23.8959 -53.4668 0.0000 0.0000 0.0000 378.4751 23.8292 30.3911 -12.0209 15.8781 19.3031 -28.9788 -46.5657 -31.0983 0.0000 0.0000 0.0000
0.0000 0.8120 4.1087 -365.3620 -6.0999 26.7122 -3.1596 1.6445 -4.9234 -3.1596 1.6445 -4.9234 -3.1596 1.6445 -4.9234 19.8326 -5.2779 1.9323 29.8810 -7.5872 3.5616 0.0000 0.0000 0.0000 -51.4136 65.1562 12.8838 0.0000 0.0000 -76.8024 0.0000 0.0000 0.0000 0.0000 0.0000 0.0000 127.9984 21.7426 -22.9848 0.0000 0.0000 94.3345 0.0000 0.0000 0.0000 19.4749 16.5345 380.9342 -4.0523 22.5564 7.6765 -39.1240 -45.0471 -41.9837 0.0000 0.0000 0.0000 383.2229 27.2186 19.3838 -14.7926 9.0539 18.6892 -11.9773 -45.8284 -12.9067 0.0000 0.0000 0.0000
